[
  {
    "state": "Gujarat",
    "city": "Ahmedabad",
    "pincode": 380001
  },
  {
    "state": "Gujarat",
    "city": "Ahmedabad",
    "pincode": 380012
  },
  {
    "state": "Gujarat",
    "city": "Ahmedabad",
    "pincode": 380026
  },
  {
    "state": "Gujarat",
    "city": "Ahmedabad",
    "pincode": 380022
  },
  {
    "state": "Gujarat",
    "city": "Ahmedabad",
    "pincode": 380003
  },
  {
    "state": "Gujarat",
    "city": "Ahmedabad",
    "pincode": 380016
  },
  {
    "state": "Gujarat",
    "city": "Ahmedabad",
    "pincode": 380006
  },
  {
    "state": "Gujarat",
    "city": "Ahmedabad",
    "pincode": 380027
  },
  {
    "state": "Gujarat",
    "city": "Ahmedabad",
    "pincode": 380061
  },
  {
    "state": "Gujarat",
    "city": "Ahmedabad",
    "pincode": 380010
  },
  {
    "state": "Gujarat",
    "city": "Ahmedabad",
    "pincode": 380024
  },
  {
    "state": "Gujarat",
    "city": "Ahmedabad",
    "pincode": 380008
  },
  {
    "state": "Gujarat",
    "city": "Ahmedabad",
    "pincode": 380052
  },
  {
    "state": "Gujarat",
    "city": "Ahmedabad",
    "pincode": 380013
  },
  {
    "state": "Gujarat",
    "city": "Ahmedabad",
    "pincode": 380025
  },
  {
    "state": "Gujarat",
    "city": "Ahmedabad",
    "pincode": 380014
  },
  {
    "state": "Gujarat",
    "city": "Ahmedabad",
    "pincode": 380009
  },
  {
    "state": "Gujarat",
    "city": "Ahmedabad",
    "pincode": 380007
  },
  {
    "state": "Gujarat",
    "city": "Ahmedabad",
    "pincode": 380015
  },
  {
    "state": "Gujarat",
    "city": "Ahmedabad",
    "pincode": 380019
  },
  {
    "state": "Gujarat",
    "city": "Ahmedabad",
    "pincode": 380002
  },
  {
    "state": "Gujarat",
    "city": "Ahmedabad",
    "pincode": 380021
  },
  {
    "state": "Gujarat",
    "city": "Ahmedabad",
    "pincode": 380023
  },
  {
    "state": "Gujarat",
    "city": "Ahmedabad",
    "pincode": 380005
  },
  {
    "state": "Gujarat",
    "city": "Ahmedabad",
    "pincode": 380053
  },
  {
    "state": "Gujarat",
    "city": "Ahmedabad",
    "pincode": 380018
  },
  {
    "state": "Gujarat",
    "city": "Ahmedabad",
    "pincode": 380028
  },
  {
    "state": "Gujarat",
    "city": "Ahmedabad",
    "pincode": 380004
  },
  {
    "state": "Gujarat",
    "city": "Ahmedabad",
    "pincode": 380051
  },
  {
    "state": "Gujarat",
    "city": "Ahmedabad",
    "pincode": 380054
  },
  {
    "state": "Gujarat",
    "city": "Ahmedabad",
    "pincode": 380055
  },
  {
    "state": "Gujarat",
    "city": "Ahmedabad",
    "pincode": 382270
  },
  {
    "state": "Gujarat",
    "city": "Ahmedabad",
    "pincode": 382308
  },
  {
    "state": "Gujarat",
    "city": "Ahmedabad",
    "pincode": 382425
  },
  {
    "state": "Gujarat",
    "city": "Ahmedabad",
    "pincode": 382450
  },
  {
    "state": "Gujarat",
    "city": "Ahmedabad",
    "pincode": 382220
  },
  {
    "state": "Gujarat",
    "city": "Ahmedabad",
    "pincode": 382463
  },
  {
    "state": "Gujarat",
    "city": "Ahmedabad",
    "pincode": 382155
  },
  {
    "state": "Gujarat",
    "city": "Ahmedabad",
    "pincode": 382260
  },
  {
    "state": "Gujarat",
    "city": "Ahmedabad",
    "pincode": 382305
  },
  {
    "state": "Gujarat",
    "city": "Ahmedabad",
    "pincode": 382120
  },
  {
    "state": "Gujarat",
    "city": "Ahmedabad",
    "pincode": 382460
  },
  {
    "state": "Gujarat",
    "city": "Ahmedabad",
    "pincode": 382455
  },
  {
    "state": "Gujarat",
    "city": "Ahmedabad",
    "pincode": 387810
  },
  {
    "state": "Gujarat",
    "city": "Ahmedabad",
    "pincode": 382465
  },
  {
    "state": "Gujarat",
    "city": "Ahmedabad",
    "pincode": 380050
  },
  {
    "state": "Gujarat",
    "city": "Ahmedabad",
    "pincode": 382115
  },
  {
    "state": "Gujarat",
    "city": "Ahmedabad",
    "pincode": 380056
  },
  {
    "state": "Gujarat",
    "city": "Ahmedabad",
    "pincode": 382443
  },
  {
    "state": "Gujarat",
    "city": "Ahmedabad",
    "pincode": 382255
  },
  {
    "state": "Gujarat",
    "city": "Ahmedabad",
    "pincode": 382449
  },
  {
    "state": "Gujarat",
    "city": "Ahmedabad",
    "pincode": 382426
  },
  {
    "state": "Gujarat",
    "city": "Ahmedabad",
    "pincode": 382165
  },
  {
    "state": "Gujarat",
    "city": "Ahmedabad",
    "pincode": 382430
  },
  {
    "state": "Gujarat",
    "city": "Ahmedabad",
    "pincode": 382145
  },
  {
    "state": "Gujarat",
    "city": "Ahmedabad",
    "pincode": 382205
  },
  {
    "state": "Gujarat",
    "city": "Ahmedabad",
    "pincode": 382352
  },
  {
    "state": "Gujarat",
    "city": "Ahmedabad",
    "pincode": 382240
  },
  {
    "state": "Gujarat",
    "city": "Ahmedabad",
    "pincode": 382340
  },
  {
    "state": "Gujarat",
    "city": "Ahmedabad",
    "pincode": 382433
  },
  {
    "state": "Gujarat",
    "city": "Ahmedabad",
    "pincode": 382230
  },
  {
    "state": "Gujarat",
    "city": "Ahmedabad",
    "pincode": 382130
  },
  {
    "state": "Gujarat",
    "city": "Ahmedabad",
    "pincode": 382435
  },
  {
    "state": "Gujarat",
    "city": "Ahmedabad",
    "pincode": 382325
  },
  {
    "state": "Gujarat",
    "city": "Ahmedabad",
    "pincode": 382330
  },
  {
    "state": "Gujarat",
    "city": "Ahmedabad",
    "pincode": 382405
  },
  {
    "state": "Gujarat",
    "city": "Ahmedabad",
    "pincode": 382410
  },
  {
    "state": "Gujarat",
    "city": "Ahmedabad",
    "pincode": 382415
  },
  {
    "state": "Gujarat",
    "city": "Ahmedabad",
    "pincode": 382250
  },
  {
    "state": "Gujarat",
    "city": "Ahmedabad",
    "pincode": 382315
  },
  {
    "state": "Gujarat",
    "city": "Ahmedabad",
    "pincode": 382140
  },
  {
    "state": "Gujarat",
    "city": "Ahmedabad",
    "pincode": 382480
  },
  {
    "state": "Gujarat",
    "city": "Ahmedabad",
    "pincode": 363610
  },
  {
    "state": "Gujarat",
    "city": "Ahmedabad",
    "pincode": 382345
  },
  {
    "state": "Gujarat",
    "city": "Ahmedabad",
    "pincode": 382451
  },
  {
    "state": "Gujarat",
    "city": "Ahmedabad",
    "pincode": 382110
  },
  {
    "state": "Gujarat",
    "city": "Ahmedabad",
    "pincode": 382475
  },
  {
    "state": "Gujarat",
    "city": "Ahmedabad",
    "pincode": 382210
  },
  {
    "state": "Gujarat",
    "city": "Ahmedabad",
    "pincode": 380063
  },
  {
    "state": "Gujarat",
    "city": "Ahmedabad",
    "pincode": 382350
  },
  {
    "state": "Gujarat",
    "city": "Ahmedabad",
    "pincode": 382440
  },
  {
    "state": "Gujarat",
    "city": "Ahmedabad",
    "pincode": 382445
  },
  {
    "state": "Gujarat",
    "city": "Ahmedabad",
    "pincode": 382150
  },
  {
    "state": "Gujarat",
    "city": "Ahmedabad",
    "pincode": 382170
  },
  {
    "state": "Gujarat",
    "city": "Ahmedabad",
    "pincode": 380011
  },
  {
    "state": "Gujarat",
    "city": "Ahmedabad",
    "pincode": 382166
  },
  {
    "state": "Gujarat",
    "city": "Ahmedabad",
    "pincode": 382160
  },
  {
    "state": "Gujarat",
    "city": "Ahmedabad",
    "pincode": 382265
  },
  {
    "state": "Gujarat",
    "city": "Ahmedabad",
    "pincode": 382327
  },
  {
    "state": "Gujarat",
    "city": "Ahmedabad",
    "pincode": 382346
  },
  {
    "state": "Gujarat",
    "city": "Ahmedabad",
    "pincode": 382310
  },
  {
    "state": "Gujarat",
    "city": "Ahmedabad",
    "pincode": 382316
  },
  {
    "state": "Gujarat",
    "city": "Ahmedabad",
    "pincode": 382360
  },
  {
    "state": "Gujarat",
    "city": "Vadodara",
    "pincode": 391135
  },
  {
    "state": "Gujarat",
    "city": "Vadodara",
    "pincode": 391141
  },
  {
    "state": "Gujarat",
    "city": "Vadodara",
    "pincode": 391443
  },
  {
    "state": "Gujarat",
    "city": "Vadodara",
    "pincode": 391441
  },
  {
    "state": "Gujarat",
    "city": "Vadodara",
    "pincode": 391108
  },
  {
    "state": "Gujarat",
    "city": "Vadodara",
    "pincode": 391152
  },
  {
    "state": "Gujarat",
    "city": "Vadodara",
    "pincode": 391773
  },
  {
    "state": "Gujarat",
    "city": "Vadodara",
    "pincode": 391142
  },
  {
    "state": "Gujarat",
    "city": "Vadodara",
    "pincode": 391450
  },
  {
    "state": "Gujarat",
    "city": "Vadodara",
    "pincode": 391136
  },
  {
    "state": "Gujarat",
    "city": "Vadodara",
    "pincode": 391126
  },
  {
    "state": "Gujarat",
    "city": "Vadodara",
    "pincode": 391245
  },
  {
    "state": "Gujarat",
    "city": "Vadodara",
    "pincode": 391442
  },
  {
    "state": "Gujarat",
    "city": "Vadodara",
    "pincode": 391137
  },
  {
    "state": "Gujarat",
    "city": "Vadodara",
    "pincode": 391145
  },
  {
    "state": "Gujarat",
    "city": "Vadodara",
    "pincode": 391241
  },
  {
    "state": "Gujarat",
    "city": "Vadodara",
    "pincode": 391116
  },
  {
    "state": "Gujarat",
    "city": "Vadodara",
    "pincode": 391242
  },
  {
    "state": "Karnataka",
    "city": "Bangalore",
    "pincode": 560030
  },
  {
    "state": "Karnataka",
    "city": "Bangalore",
    "pincode": 560063
  },
  {
    "state": "Karnataka",
    "city": "Bangalore",
    "pincode": 560007
  },
  {
    "state": "Karnataka",
    "city": "Bangalore",
    "pincode": 562124
  },
  {
    "state": "Karnataka",
    "city": "Bangalore",
    "pincode": 562106
  },
  {
    "state": "Karnataka",
    "city": "Bangalore",
    "pincode": 560045
  },
  {
    "state": "Karnataka",
    "city": "Bangalore",
    "pincode": 562107
  },
  {
    "state": "Karnataka",
    "city": "Bangalore",
    "pincode": 562136
  },
  {
    "state": "Karnataka",
    "city": "Bangalore",
    "pincode": 562149
  },
  {
    "state": "Karnataka",
    "city": "Bangalore",
    "pincode": 560050
  },
  {
    "state": "Karnataka",
    "city": "Bangalore",
    "pincode": 560070
  },
  {
    "state": "Karnataka",
    "city": "Bangalore",
    "pincode": 560085
  },
  {
    "state": "Karnataka",
    "city": "Bangalore",
    "pincode": 560043
  },
  {
    "state": "Karnataka",
    "city": "Bangalore",
    "pincode": 560002
  },
  {
    "state": "Karnataka",
    "city": "Bangalore",
    "pincode": 560001
  },
  {
    "state": "Karnataka",
    "city": "Bangalore",
    "pincode": 560094
  },
  {
    "state": "Karnataka",
    "city": "Bangalore",
    "pincode": 560083
  },
  {
    "state": "Karnataka",
    "city": "Bangalore",
    "pincode": 560076
  },
  {
    "state": "Karnataka",
    "city": "Bangalore",
    "pincode": 560004
  },
  {
    "state": "Karnataka",
    "city": "Bangalore",
    "pincode": 560046
  },
  {
    "state": "Karnataka",
    "city": "Bangalore",
    "pincode": 562157
  },
  {
    "state": "Karnataka",
    "city": "Bangalore",
    "pincode": 562108
  },
  {
    "state": "Karnataka",
    "city": "Bangalore",
    "pincode": 562109
  },
  {
    "state": "Karnataka",
    "city": "Bangalore",
    "pincode": 561214
  },
  {
    "state": "Karnataka",
    "city": "Bangalore",
    "pincode": 560092
  },
  {
    "state": "Karnataka",
    "city": "Bangalore",
    "pincode": 562142
  },
  {
    "state": "Karnataka",
    "city": "Bangalore",
    "pincode": 560035
  },
  {
    "state": "Karnataka",
    "city": "Bangalore",
    "pincode": 562151
  },
  {
    "state": "Karnataka",
    "city": "Bangalore",
    "pincode": 560018
  },
  {
    "state": "Karnataka",
    "city": "Bangalore",
    "pincode": 562145
  },
  {
    "state": "Karnataka",
    "city": "Bangalore",
    "pincode": 571501
  },
  {
    "state": "Karnataka",
    "city": "Bangalore",
    "pincode": 571502
  },
  {
    "state": "Karnataka",
    "city": "Bangalore",
    "pincode": 562137
  },
  {
    "state": "Karnataka",
    "city": "Bangalore",
    "pincode": 562101
  },
  {
    "state": "Karnataka",
    "city": "Bangalore",
    "pincode": 560090
  },
  {
    "state": "Karnataka",
    "city": "Bangalore",
    "pincode": 562152
  },
  {
    "state": "Karnataka",
    "city": "Bangalore",
    "pincode": 562143
  },
  {
    "state": "Karnataka",
    "city": "Bangalore",
    "pincode": 560053
  },
  {
    "state": "Karnataka",
    "city": "Bangalore",
    "pincode": 560057
  },
  {
    "state": "Karnataka",
    "city": "Bangalore",
    "pincode": 562110
  },
  {
    "state": "Karnataka",
    "city": "Bangalore",
    "pincode": 560029
  },
  {
    "state": "Karnataka",
    "city": "Bangalore",
    "pincode": 562115
  },
  {
    "state": "Karnataka",
    "city": "Bangalore",
    "pincode": 562147
  },
  {
    "state": "Karnataka",
    "city": "Bangalore",
    "pincode": 794005
  },
  {
    "state": "Karnataka",
    "city": "Bangalore",
    "pincode": 561203
  },
  {
    "state": "Karnataka",
    "city": "Bangalore",
    "pincode": 561204
  },
  {
    "state": "Karnataka",
    "city": "Bangalore",
    "pincode": 560071
  },
  {
    "state": "Karnataka",
    "city": "Bangalore",
    "pincode": 562148
  },
  {
    "state": "Karnataka",
    "city": "Bangalore",
    "pincode": 560016
  },
  {
    "state": "Karnataka",
    "city": "Bangalore",
    "pincode": 560005
  },
  {
    "state": "Karnataka",
    "city": "Bangalore",
    "pincode": 560009
  },
  {
    "state": "Karnataka",
    "city": "Bangalore",
    "pincode": 560019
  },
  {
    "state": "Karnataka",
    "city": "Bangalore",
    "pincode": 560065
  },
  {
    "state": "Karnataka",
    "city": "Bangalore",
    "pincode": 560026
  },
  {
    "state": "Karnataka",
    "city": "Bangalore",
    "pincode": 562153
  },
  {
    "state": "Karnataka",
    "city": "Bangalore",
    "pincode": 562112
  },
  {
    "state": "Karnataka",
    "city": "Bangalore",
    "pincode": 560008
  },
  {
    "state": "Karnataka",
    "city": "Bangalore",
    "pincode": 560051
  },
  {
    "state": "Karnataka",
    "city": "Bangalore",
    "pincode": 560024
  },
  {
    "state": "Karnataka",
    "city": "Bangalore",
    "pincode": 560088
  },
  {
    "state": "Karnataka",
    "city": "Bangalore",
    "pincode": 560089
  },
  {
    "state": "Karnataka",
    "city": "Bangalore",
    "pincode": 560031
  },
  {
    "state": "Karnataka",
    "city": "Bangalore",
    "pincode": 562138
  },
  {
    "state": "Karnataka",
    "city": "Bangalore",
    "pincode": 562114
  },
  {
    "state": "Karnataka",
    "city": "Bangalore",
    "pincode": 560038
  },
  {
    "state": "Karnataka",
    "city": "Bangalore",
    "pincode": 560044
  },
  {
    "state": "Karnataka",
    "city": "Bangalore",
    "pincode": 562154
  },
  {
    "state": "Karnataka",
    "city": "Bangalore",
    "pincode": 560013
  },
  {
    "state": "Karnataka",
    "city": "Bangalore",
    "pincode": 560014
  },
  {
    "state": "Karnataka",
    "city": "Bangalore",
    "pincode": 560015
  },
  {
    "state": "Karnataka",
    "city": "Bangalore",
    "pincode": 562144
  },
  {
    "state": "Karnataka",
    "city": "Bangalore",
    "pincode": 560006
  },
  {
    "state": "Karnataka",
    "city": "Bangalore",
    "pincode": 560011
  },
  {
    "state": "Karnataka",
    "city": "Bangalore",
    "pincode": 560069
  },
  {
    "state": "Karnataka",
    "city": "Bangalore",
    "pincode": 560041
  },
  {
    "state": "Karnataka",
    "city": "Bangalore",
    "pincode": 560082
  },
  {
    "state": "Karnataka",
    "city": "Bangalore",
    "pincode": 560078
  },
  {
    "state": "Karnataka",
    "city": "Bangalore",
    "pincode": 560075
  },
  {
    "state": "Karnataka",
    "city": "Bangalore",
    "pincode": 562140
  },
  {
    "state": "Karnataka",
    "city": "Bangalore",
    "pincode": 560067
  },
  {
    "state": "Karnataka",
    "city": "Bangalore",
    "pincode": 562117
  },
  {
    "state": "Karnataka",
    "city": "Bangalore",
    "pincode": 562150
  },
  {
    "state": "Karnataka",
    "city": "Bangalore",
    "pincode": 560060
  },
  {
    "state": "Karnataka",
    "city": "Bangalore",
    "pincode": 562119
  },
  {
    "state": "Karnataka",
    "city": "Bangalore",
    "pincode": 560034
  },
  {
    "state": "Karnataka",
    "city": "Bangalore",
    "pincode": 561215
  },
  {
    "state": "Karnataka",
    "city": "Bangalore",
    "pincode": 560077
  },
  {
    "state": "Karnataka",
    "city": "Bangalore",
    "pincode": 560036
  },
  {
    "state": "Karnataka",
    "city": "Bangalore",
    "pincode": 561101
  },
  {
    "state": "Karnataka",
    "city": "Bangalore",
    "pincode": 560074
  },
  {
    "state": "Karnataka",
    "city": "Bangalore",
    "pincode": 562120
  },
  {
    "state": "Karnataka",
    "city": "Bangalore",
    "pincode": 560023
  },
  {
    "state": "Karnataka",
    "city": "Bangalore",
    "pincode": 560048
  },
  {
    "state": "Karnataka",
    "city": "Bangalore",
    "pincode": 560086
  },
  {
    "state": "Karnataka",
    "city": "Bangalore",
    "pincode": 560003
  },
  {
    "state": "Karnataka",
    "city": "Bangalore",
    "pincode": 560055
  },
  {
    "state": "Karnataka",
    "city": "Bangalore",
    "pincode": 571512
  },
  {
    "state": "Karnataka",
    "city": "Bangalore",
    "pincode": 562121
  },
  {
    "state": "Karnataka",
    "city": "Bangalore",
    "pincode": 560037
  },
  {
    "state": "Karnataka",
    "city": "Bangalore",
    "pincode": 560033
  },
  {
    "state": "Karnataka",
    "city": "Bangalore",
    "pincode": 560054
  },
  {
    "state": "Karnataka",
    "city": "Bangalore",
    "pincode": 561205
  },
  {
    "state": "Karnataka",
    "city": "Bangalore",
    "pincode": 560072
  },
  {
    "state": "Karnataka",
    "city": "Bangalore",
    "pincode": 560073
  },
  {
    "state": "Karnataka",
    "city": "Bangalore",
    "pincode": 560039
  },
  {
    "state": "Karnataka",
    "city": "Bangalore",
    "pincode": 562123
  },
  {
    "state": "Karnataka",
    "city": "Bangalore",
    "pincode": 560058
  },
  {
    "state": "Karnataka",
    "city": "Bangalore",
    "pincode": 560032
  },
  {
    "state": "Karnataka",
    "city": "Bangalore",
    "pincode": 560059
  },
  {
    "state": "Karnataka",
    "city": "Bangalore",
    "pincode": 560010
  },
  {
    "state": "Karnataka",
    "city": "Bangalore",
    "pincode": 571511
  },
  {
    "state": "Karnataka",
    "city": "Bangalore",
    "pincode": 560025
  },
  {
    "state": "Karnataka",
    "city": "Bangalore",
    "pincode": 560080
  },
  {
    "state": "Karnataka",
    "city": "Bangalore",
    "pincode": 561227
  },
  {
    "state": "Karnataka",
    "city": "Bangalore",
    "pincode": 560084
  },
  {
    "state": "Karnataka",
    "city": "Bangalore",
    "pincode": 562125
  },
  {
    "state": "Karnataka",
    "city": "Bangalore",
    "pincode": 562126
  },
  {
    "state": "Karnataka",
    "city": "Bangalore",
    "pincode": 560012
  },
  {
    "state": "Karnataka",
    "city": "Bangalore",
    "pincode": 560020
  },
  {
    "state": "Karnataka",
    "city": "Bangalore",
    "pincode": 562139
  },
  {
    "state": "Karnataka",
    "city": "Bangalore",
    "pincode": 560042
  },
  {
    "state": "Karnataka",
    "city": "Bangalore",
    "pincode": 562127
  },
  {
    "state": "Karnataka",
    "city": "Bangalore",
    "pincode": 560021
  },
  {
    "state": "Karnataka",
    "city": "Bangalore",
    "pincode": 560061
  },
  {
    "state": "Karnataka",
    "city": "Bangalore",
    "pincode": 562128
  },
  {
    "state": "Karnataka",
    "city": "Bangalore",
    "pincode": 562129
  },
  {
    "state": "Karnataka",
    "city": "Bangalore",
    "pincode": 562130
  },
  {
    "state": "Karnataka",
    "city": "Bangalore",
    "pincode": 560081
  },
  {
    "state": "Karnataka",
    "city": "Bangalore",
    "pincode": 562131
  },
  {
    "state": "Karnataka",
    "city": "Bangalore",
    "pincode": 561226
  },
  {
    "state": "Karnataka",
    "city": "Bangalore",
    "pincode": 560028
  },
  {
    "state": "Karnataka",
    "city": "Bangalore",
    "pincode": 562132
  },
  {
    "state": "Karnataka",
    "city": "Bangalore",
    "pincode": 561201
  },
  {
    "state": "Karnataka",
    "city": "Bangalore",
    "pincode": 560087
  },
  {
    "state": "Karnataka",
    "city": "Bangalore",
    "pincode": 560052
  },
  {
    "state": "Karnataka",
    "city": "Bangalore",
    "pincode": 561216
  },
  {
    "state": "Karnataka",
    "city": "Bangalore",
    "pincode": 562134
  },
  {
    "state": "Karnataka",
    "city": "Bangalore",
    "pincode": 560097
  },
  {
    "state": "Karnataka",
    "city": "Bangalore",
    "pincode": 560040
  },
  {
    "state": "Karnataka",
    "city": "Bangalore",
    "pincode": 560017
  },
  {
    "state": "Karnataka",
    "city": "Bangalore",
    "pincode": 560056
  },
  {
    "state": "Karnataka",
    "city": "Bangalore",
    "pincode": 560091
  },
  {
    "state": "Karnataka",
    "city": "Bangalore",
    "pincode": 560047
  },
  {
    "state": "Karnataka",
    "city": "Bangalore",
    "pincode": 560064
  },
  {
    "state": "Karnataka",
    "city": "Bangalore",
    "pincode": 560022
  },
  {
    "state": "Karnataka",
    "city": "Bangalore",
    "pincode": 560027
  },
  {
    "state": "Karnataka",
    "city": "Bangalore",
    "pincode": 560068
  },
  {
    "state": "Karnataka",
    "city": "Bangalore",
    "pincode": 560093
  },
  {
    "state": "Karnataka",
    "city": "Bangalore",
    "pincode": 530052
  },
  {
    "state": "Karnataka",
    "city": "Bangalore",
    "pincode": 560079
  },
  {
    "state": "Karnataka",
    "city": "Bangalore",
    "pincode": 562158
  },
  {
    "state": "Karnataka",
    "city": "Bangalore",
    "pincode": 560062
  },
  {
    "state": "Karnataka",
    "city": "Bangalore",
    "pincode": 562122
  },
  {
    "state": "Karnataka",
    "city": "Bangalore",
    "pincode": 562135
  },
  {
    "state": "Karnataka",
    "city": "Bangalore",
    "pincode": 560049
  },
  {
    "state": "Karnataka",
    "city": "Bangalore",
    "pincode": 560066
  },
  {
    "state": "Chandigarh",
    "city": "Chandigarh",
    "pincode": 160106
  },
  {
    "state": "Chandigarh",
    "city": "Chandigarh",
    "pincode": 160001
  },
  {
    "state": "Chandigarh",
    "city": "Chandigarh",
    "pincode": 160002
  },
  {
    "state": "Chandigarh",
    "city": "Chandigarh",
    "pincode": 160003
  },
  {
    "state": "Chandigarh",
    "city": "Chandigarh",
    "pincode": 160004
  },
  {
    "state": "Chandigarh",
    "city": "Chandigarh",
    "pincode": 160011
  },
  {
    "state": "Chandigarh",
    "city": "Chandigarh",
    "pincode": 160012
  },
  {
    "state": "Chandigarh",
    "city": "Chandigarh",
    "pincode": 160014
  },
  {
    "state": "Chandigarh",
    "city": "Chandigarh",
    "pincode": 160015
  },
  {
    "state": "Chandigarh",
    "city": "Chandigarh",
    "pincode": 160017
  },
  {
    "state": "Chandigarh",
    "city": "Chandigarh",
    "pincode": 160018
  },
  {
    "state": "Chandigarh",
    "city": "Chandigarh",
    "pincode": 160019
  },
  {
    "state": "Chandigarh",
    "city": "Chandigarh",
    "pincode": 160020
  },
  {
    "state": "Chandigarh",
    "city": "Chandigarh",
    "pincode": 160022
  },
  {
    "state": "Chandigarh",
    "city": "Chandigarh",
    "pincode": 160023
  },
  {
    "state": "Chandigarh",
    "city": "Chandigarh",
    "pincode": 160047
  },
  {
    "state": "Chandigarh",
    "city": "Chandigarh",
    "pincode": 160101
  },
  {
    "state": "Chandigarh",
    "city": "Chandigarh",
    "pincode": 160055
  },
  {
    "state": "Chandigarh",
    "city": "Chandigarh",
    "pincode": 160010
  },
  {
    "state": "Chandigarh",
    "city": "Chandigarh",
    "pincode": 160016
  },
  {
    "state": "Chandigarh",
    "city": "Chandigarh",
    "pincode": 160026
  },
  {
    "state": "Chandigarh",
    "city": "Chandigarh",
    "pincode": 160031
  },
  {
    "state": "Chandigarh",
    "city": "Chandigarh",
    "pincode": 160036
  },
  {
    "state": "Chandigarh",
    "city": "Chandigarh",
    "pincode": 160059
  },
  {
    "state": "Chandigarh",
    "city": "Chandigarh",
    "pincode": 160061
  },
  {
    "state": "Chandigarh",
    "city": "Chandigarh",
    "pincode": 160008
  },
  {
    "state": "Chandigarh",
    "city": "Chandigarh",
    "pincode": 160009
  },
  {
    "state": "Tamil Nadu",
    "city": "Chennai",
    "pincode": 600020
  },
  {
    "state": "Tamil Nadu",
    "city": "Chennai",
    "pincode": 600029
  },
  {
    "state": "Tamil Nadu",
    "city": "Chennai",
    "pincode": 600040
  },
  {
    "state": "Tamil Nadu",
    "city": "Chennai",
    "pincode": 600102
  },
  {
    "state": "Tamil Nadu",
    "city": "Chennai",
    "pincode": 600101
  },
  {
    "state": "Tamil Nadu",
    "city": "Chennai",
    "pincode": 600002
  },
  {
    "state": "Tamil Nadu",
    "city": "Chennai",
    "pincode": 600083
  },
  {
    "state": "Tamil Nadu",
    "city": "Chennai",
    "pincode": 600023
  },
  {
    "state": "Tamil Nadu",
    "city": "Chennai",
    "pincode": 600090
  },
  {
    "state": "Tamil Nadu",
    "city": "Chennai",
    "pincode": 600108
  },
  {
    "state": "Tamil Nadu",
    "city": "Chennai",
    "pincode": 600001
  },
  {
    "state": "Tamil Nadu",
    "city": "Chennai",
    "pincode": 600005
  },
  {
    "state": "Tamil Nadu",
    "city": "Chennai",
    "pincode": 600031
  },
  {
    "state": "Tamil Nadu",
    "city": "Chennai",
    "pincode": 600112
  },
  {
    "state": "Tamil Nadu",
    "city": "Chennai",
    "pincode": 600094
  },
  {
    "state": "Tamil Nadu",
    "city": "Chennai",
    "pincode": 600105
  },
  {
    "state": "Tamil Nadu",
    "city": "Chennai",
    "pincode": 600008
  },
  {
    "state": "Tamil Nadu",
    "city": "Chennai",
    "pincode": 600097
  },
  {
    "state": "Tamil Nadu",
    "city": "Chennai",
    "pincode": 600025
  },
  {
    "state": "Tamil Nadu",
    "city": "Chennai",
    "pincode": 600057
  },
  {
    "state": "Tamil Nadu",
    "city": "Chennai",
    "pincode": 600084
  },
  {
    "state": "Tamil Nadu",
    "city": "Chennai",
    "pincode": 600009
  },
  {
    "state": "Tamil Nadu",
    "city": "Chennai",
    "pincode": 600086
  },
  {
    "state": "Tamil Nadu",
    "city": "Chennai",
    "pincode": 600006
  },
  {
    "state": "Tamil Nadu",
    "city": "Chennai",
    "pincode": 600104
  },
  {
    "state": "Tamil Nadu",
    "city": "Chennai",
    "pincode": 600038
  },
  {
    "state": "Tamil Nadu",
    "city": "Chennai",
    "pincode": 600036
  },
  {
    "state": "Tamil Nadu",
    "city": "Chennai",
    "pincode": 600095
  },
  {
    "state": "Tamil Nadu",
    "city": "Chennai",
    "pincode": 600082
  },
  {
    "state": "Tamil Nadu",
    "city": "Chennai",
    "pincode": 600078
  },
  {
    "state": "Tamil Nadu",
    "city": "Chennai",
    "pincode": 600010
  },
  {
    "state": "Tamil Nadu",
    "city": "Chennai",
    "pincode": 600024
  },
  {
    "state": "Tamil Nadu",
    "city": "Chennai",
    "pincode": 600118
  },
  {
    "state": "Tamil Nadu",
    "city": "Chennai",
    "pincode": 600085
  },
  {
    "state": "Tamil Nadu",
    "city": "Chennai",
    "pincode": 600004
  },
  {
    "state": "Tamil Nadu",
    "city": "Chennai",
    "pincode": 600035
  },
  {
    "state": "Tamil Nadu",
    "city": "Chennai",
    "pincode": 600034
  },
  {
    "state": "Tamil Nadu",
    "city": "Chennai",
    "pincode": 600037
  },
  {
    "state": "Tamil Nadu",
    "city": "Chennai",
    "pincode": 600003
  },
  {
    "state": "Tamil Nadu",
    "city": "Chennai",
    "pincode": 600011
  },
  {
    "state": "Tamil Nadu",
    "city": "Chennai",
    "pincode": 600012
  },
  {
    "state": "Tamil Nadu",
    "city": "Chennai",
    "pincode": 600096
  },
  {
    "state": "Tamil Nadu",
    "city": "Chennai",
    "pincode": 600110
  },
  {
    "state": "Tamil Nadu",
    "city": "Chennai",
    "pincode": 600028
  },
  {
    "state": "Tamil Nadu",
    "city": "Chennai",
    "pincode": 600022
  },
  {
    "state": "Tamil Nadu",
    "city": "Chennai",
    "pincode": 600013
  },
  {
    "state": "Tamil Nadu",
    "city": "Chennai",
    "pincode": 600014
  },
  {
    "state": "Tamil Nadu",
    "city": "Chennai",
    "pincode": 600015
  },
  {
    "state": "Tamil Nadu",
    "city": "Chennai",
    "pincode": 600016
  },
  {
    "state": "Tamil Nadu",
    "city": "Chennai",
    "pincode": 600030
  },
  {
    "state": "Tamil Nadu",
    "city": "Chennai",
    "pincode": 600079
  },
  {
    "state": "Tamil Nadu",
    "city": "Chennai",
    "pincode": 600111
  },
  {
    "state": "Tamil Nadu",
    "city": "Chennai",
    "pincode": 600113
  },
  {
    "state": "Tamil Nadu",
    "city": "Chennai",
    "pincode": 600018
  },
  {
    "state": "Tamil Nadu",
    "city": "Chennai",
    "pincode": 600017
  },
  {
    "state": "Tamil Nadu",
    "city": "Chennai",
    "pincode": 600041
  },
  {
    "state": "Tamil Nadu",
    "city": "Chennai",
    "pincode": 600081
  },
  {
    "state": "Tamil Nadu",
    "city": "Chennai",
    "pincode": 600026
  },
  {
    "state": "Tamil Nadu",
    "city": "Chennai",
    "pincode": 600007
  },
  {
    "state": "Tamil Nadu",
    "city": "Chennai",
    "pincode": 600021
  },
  {
    "state": "Tamil Nadu",
    "city": "Chennai",
    "pincode": 600033
  },
  {
    "state": "Tamil Nadu",
    "city": "Chennai",
    "pincode": 600088
  },
  {
    "state": "Tamil Nadu",
    "city": "Chennai",
    "pincode": 600087
  },
  {
    "state": "Tamil Nadu",
    "city": "Chennai",
    "pincode": 600050
  },
  {
    "state": "Tamil Nadu",
    "city": "Chennai",
    "pincode": 600032
  },
  {
    "state": "Tamil Nadu",
    "city": "Chennai",
    "pincode": 600092
  },
  {
    "state": "Tamil Nadu",
    "city": "Chennai",
    "pincode": 600051
  },
  {
    "state": "Tamil Nadu",
    "city": "Chennai",
    "pincode": 600019
  },
  {
    "state": "Tamil Nadu",
    "city": "Chennai",
    "pincode": 600039
  },
  {
    "state": "Tamil Nadu",
    "city": "Chennai",
    "pincode": 600046
  },
  {
    "state": "Tamil Nadu",
    "city": "Chennai",
    "pincode": 600054
  },
  {
    "state": "Tamil Nadu",
    "city": "Chennai",
    "pincode": 600042
  },
  {
    "state": "Tamil Nadu",
    "city": "Chennai",
    "pincode": 600089
  },
  {
    "state": "Tamil Nadu",
    "city": "Chennai",
    "pincode": 600093
  },
  {
    "state": "Tamil Nadu",
    "city": "Chennai",
    "pincode": 600049
  },
  {
    "state": "Tamil Nadu",
    "city": "Chennai",
    "pincode": 600076
  },
  {
    "state": "Tamil Nadu",
    "city": "Chennai",
    "pincode": 600091
  },
  {
    "state": "Tamil Nadu",
    "city": "Chennai",
    "pincode": 600060
  },
  {
    "state": "Tamil Nadu",
    "city": "Chennai",
    "pincode": 600027
  },
  {
    "state": "Tamil Nadu",
    "city": "Chennai",
    "pincode": 600061
  },
  {
    "state": "Tamil Nadu",
    "city": "Chennai",
    "pincode": 600053
  },
  {
    "state": "Tamil Nadu",
    "city": "Chennai",
    "pincode": 600075
  },
  {
    "state": "Tamil Nadu",
    "city": "Chennai",
    "pincode": 600056
  },
  {
    "state": "Tamil Nadu",
    "city": "Chennai",
    "pincode": 600116
  },
  {
    "state": "Tamil Nadu",
    "city": "Chennai",
    "pincode": 600074
  },
  {
    "state": "Tamil Nadu",
    "city": "Chennai",
    "pincode": 600044
  },
  {
    "state": "Tamil Nadu",
    "city": "Chennai",
    "pincode": 600072
  },
  {
    "state": "Tamil Nadu",
    "city": "Chennai",
    "pincode": 600077
  },
  {
    "state": "Tamil Nadu",
    "city": "Chennai",
    "pincode": 600106
  },
  {
    "state": "Tamil Nadu",
    "city": "Chennai",
    "pincode": 600048
  },
  {
    "state": "Tamil Nadu",
    "city": "Chennai",
    "pincode": 600073
  },
  {
    "state": "Tamil Nadu",
    "city": "Chennai",
    "pincode": 600043
  },
  {
    "state": "Tamil Nadu",
    "city": "Chennai",
    "pincode": 600107
  },
  {
    "state": "Delhi",
    "city": "Delhi",
    "pincode": 110038
  },
  {
    "state": "Delhi",
    "city": "Delhi",
    "pincode": 110036
  },
  {
    "state": "Delhi",
    "city": "Delhi",
    "pincode": 110052
  },
  {
    "state": "Delhi",
    "city": "Delhi",
    "pincode": 110044
  },
  {
    "state": "Delhi",
    "city": "Delhi",
    "pincode": 110039
  },
  {
    "state": "Delhi",
    "city": "Delhi",
    "pincode": 110061
  },
  {
    "state": "Delhi",
    "city": "Delhi",
    "pincode": 110084
  },
  {
    "state": "Delhi",
    "city": "Delhi",
    "pincode": 110021
  },
  {
    "state": "Delhi",
    "city": "Delhi",
    "pincode": 110071
  },
  {
    "state": "Delhi",
    "city": "Delhi",
    "pincode": 110054
  },
  {
    "state": "Delhi",
    "city": "Delhi",
    "pincode": 110011
  },
  {
    "state": "Delhi",
    "city": "Delhi",
    "pincode": 110010
  },
  {
    "state": "Delhi",
    "city": "Delhi",
    "pincode": 110006
  },
  {
    "state": "Delhi",
    "city": "Delhi",
    "pincode": 110031
  },
  {
    "state": "Delhi",
    "city": "Delhi",
    "pincode": 110094
  },
  {
    "state": "Delhi",
    "city": "Delhi",
    "pincode": 110009
  },
  {
    "state": "Delhi",
    "city": "Delhi",
    "pincode": 110048
  },
  {
    "state": "Delhi",
    "city": "Delhi",
    "pincode": 110037
  },
  {
    "state": "Delhi",
    "city": "Delhi",
    "pincode": 110066
  },
  {
    "state": "Delhi",
    "city": "Delhi",
    "pincode": 110068
  },
  {
    "state": "Delhi",
    "city": "Delhi",
    "pincode": 110012
  },
  {
    "state": "Delhi",
    "city": "Delhi",
    "pincode": 110002
  },
  {
    "state": "Delhi",
    "city": "Delhi",
    "pincode": 110025
  },
  {
    "state": "Delhi",
    "city": "Delhi",
    "pincode": 110058
  },
  {
    "state": "Delhi",
    "city": "Delhi",
    "pincode": 100067
  },
  {
    "state": "Delhi",
    "city": "Delhi",
    "pincode": 110095
  },
  {
    "state": "Delhi",
    "city": "Delhi",
    "pincode": 110019
  },
  {
    "state": "Delhi",
    "city": "Delhi",
    "pincode": 110081
  },
  {
    "state": "Delhi",
    "city": "Delhi",
    "pincode": 110005
  },
  {
    "state": "Delhi",
    "city": "Delhi",
    "pincode": 110082
  },
  {
    "state": "Delhi",
    "city": "Delhi",
    "pincode": 110091
  },
  {
    "state": "Delhi",
    "city": "Delhi",
    "pincode": 110051
  },
  {
    "state": "Delhi",
    "city": "Delhi",
    "pincode": 110092
  },
  {
    "state": "Delhi",
    "city": "Delhi",
    "pincode": 110003
  },
  {
    "state": "Delhi",
    "city": "Delhi",
    "pincode": 110007
  },
  {
    "state": "Delhi",
    "city": "Delhi",
    "pincode": 110083
  },
  {
    "state": "Delhi",
    "city": "Delhi",
    "pincode": 110053
  },
  {
    "state": "Delhi",
    "city": "Delhi",
    "pincode": 110093
  },
  {
    "state": "Delhi",
    "city": "Delhi",
    "pincode": 110041
  },
  {
    "state": "Delhi",
    "city": "Delhi",
    "pincode": 110040
  },
  {
    "state": "Delhi",
    "city": "Delhi",
    "pincode": 110033
  },
  {
    "state": "Delhi",
    "city": "Delhi",
    "pincode": 110020
  },
  {
    "state": "Delhi",
    "city": "Delhi",
    "pincode": 110035
  },
  {
    "state": "Delhi",
    "city": "Delhi",
    "pincode": 110060
  },
  {
    "state": "Delhi",
    "city": "Delhi",
    "pincode": 110027
  },
  {
    "state": "Delhi",
    "city": "Delhi",
    "pincode": 110022
  },
  {
    "state": "Delhi",
    "city": "Delhi",
    "pincode": 110015
  },
  {
    "state": "Delhi",
    "city": "Delhi",
    "pincode": 110004
  },
  {
    "state": "Delhi",
    "city": "Delhi",
    "pincode": 110085
  },
  {
    "state": "Delhi",
    "city": "Delhi",
    "pincode": 110042
  },
  {
    "state": "Delhi",
    "city": "Delhi",
    "pincode": 110023
  },
  {
    "state": "Delhi",
    "city": "Delhi",
    "pincode": 110032
  },
  {
    "state": "Delhi",
    "city": "Delhi",
    "pincode": 100034
  },
  {
    "state": "Delhi",
    "city": "Delhi",
    "pincode": 110087
  },
  {
    "state": "Delhi",
    "city": "Delhi",
    "pincode": 110018
  },
  {
    "state": "Delhi",
    "city": "Delhi",
    "pincode": 110073
  },
  {
    "state": "Delhi",
    "city": "Delhi",
    "pincode": 110070
  },
  {
    "state": "Delhi",
    "city": "Delhi",
    "pincode": 110057
  },
  {
    "state": "Delhi",
    "city": "Delhi",
    "pincode": 110017
  },
  {
    "state": "Delhi",
    "city": "Delhi",
    "pincode": 110047
  },
  {
    "state": "Delhi",
    "city": "Delhi",
    "pincode": 110001
  },
  {
    "state": "Delhi",
    "city": "Delhi",
    "pincode": 110013
  },
  {
    "state": "Delhi",
    "city": "Delhi",
    "pincode": 110024
  },
  {
    "state": "Delhi",
    "city": "Delhi",
    "pincode": 110055
  },
  {
    "state": "Delhi",
    "city": "Delhi",
    "pincode": 110065
  },
  {
    "state": "Delhi",
    "city": "Delhi",
    "pincode": 110029
  },
  {
    "state": "Delhi",
    "city": "Delhi",
    "pincode": 110034
  },
  {
    "state": "Delhi",
    "city": "Delhi",
    "pincode": 110049
  },
  {
    "state": "Delhi",
    "city": "Delhi",
    "pincode": 110059
  },
  {
    "state": "Delhi",
    "city": "Delhi",
    "pincode": 110064
  },
  {
    "state": "Delhi",
    "city": "Delhi",
    "pincode": 110008
  },
  {
    "state": "Delhi",
    "city": "Delhi",
    "pincode": 110014
  },
  {
    "state": "Delhi",
    "city": "Delhi",
    "pincode": 110026
  },
  {
    "state": "Delhi",
    "city": "Delhi",
    "pincode": 110043
  },
  {
    "state": "Delhi",
    "city": "Delhi",
    "pincode": 110046
  },
  {
    "state": "Delhi",
    "city": "Delhi",
    "pincode": 110045
  },
  {
    "state": "Delhi",
    "city": "Delhi",
    "pincode": 110056
  },
  {
    "state": "Delhi",
    "city": "Delhi",
    "pincode": 110072
  },
  {
    "state": "Delhi",
    "city": "Delhi",
    "pincode": 110063
  },
  {
    "state": "Delhi",
    "city": "Delhi",
    "pincode": 110028
  },
  {
    "state": "Delhi",
    "city": "Delhi",
    "pincode": 110062
  },
  {
    "state": "Delhi",
    "city": "Delhi",
    "pincode": 110067
  },
  {
    "state": "Delhi",
    "city": "Delhi",
    "pincode": 110016
  },
  {
    "state": "Delhi",
    "city": "Delhi",
    "pincode": 110030
  },
  {
    "state": "Delhi",
    "city": "Delhi",
    "pincode": 110096
  },
  {
    "state": "Haryana",
    "city": "Faridabad",
    "pincode": 121003
  },
  {
    "state": "Haryana",
    "city": "Faridabad",
    "pincode": 121105
  },
  {
    "state": "Haryana",
    "city": "Faridabad",
    "pincode": 121004
  },
  {
    "state": "Haryana",
    "city": "Faridabad",
    "pincode": 121007
  },
  {
    "state": "Haryana",
    "city": "Faridabad",
    "pincode": 121001
  },
  {
    "state": "Haryana",
    "city": "Faridabad",
    "pincode": 121002
  },
  {
    "state": "Haryana",
    "city": "Faridabad",
    "pincode": 121005
  },
  {
    "state": "Haryana",
    "city": "Faridabad",
    "pincode": 121006
  },
  {
    "state": "Haryana",
    "city": "Faridabad",
    "pincode": 121008
  },
  {
    "state": "Haryana",
    "city": "Faridabad",
    "pincode": 121107
  },
  {
    "state": "Haryana",
    "city": "Faridabad",
    "pincode": 121103
  },
  {
    "state": "Haryana",
    "city": "Faridabad",
    "pincode": 121106
  },
  {
    "state": "Haryana",
    "city": "Faridabad",
    "pincode": 121102
  },
  {
    "state": "Haryana",
    "city": "Faridabad",
    "pincode": 121009
  },
  {
    "state": "Haryana",
    "city": "Faridabad",
    "pincode": 121101
  },
  {
    "state": "Haryana",
    "city": "Faridabad",
    "pincode": 121104
  },
  {
    "state": "Uttar Pradesh",
    "city": "Ghaziabad",
    "pincode": 245201
  },
  {
    "state": "Uttar Pradesh",
    "city": "Ghaziabad",
    "pincode": 245208
  },
  {
    "state": "Uttar Pradesh",
    "city": "Ghaziabad",
    "pincode": 201011
  },
  {
    "state": "Uttar Pradesh",
    "city": "Ghaziabad",
    "pincode": 201006
  },
  {
    "state": "Uttar Pradesh",
    "city": "Ghaziabad",
    "pincode": 203207
  },
  {
    "state": "Uttar Pradesh",
    "city": "Ghaziabad",
    "pincode": 224135
  },
  {
    "state": "Uttar Pradesh",
    "city": "Ghaziabad",
    "pincode": 245301
  },
  {
    "state": "Uttar Pradesh",
    "city": "Ghaziabad",
    "pincode": 245205
  },
  {
    "state": "Uttar Pradesh",
    "city": "Ghaziabad",
    "pincode": 201001
  },
  {
    "state": "Uttar Pradesh",
    "city": "Ghaziabad",
    "pincode": 201009
  },
  {
    "state": "Uttar Pradesh",
    "city": "Ghaziabad",
    "pincode": 201008
  },
  {
    "state": "Uttar Pradesh",
    "city": "Ghaziabad",
    "pincode": 201201
  },
  {
    "state": "Uttar Pradesh",
    "city": "Ghaziabad",
    "pincode": 245101
  },
  {
    "state": "Uttar Pradesh",
    "city": "Ghaziabad",
    "pincode": 201004
  },
  {
    "state": "Uttar Pradesh",
    "city": "Ghaziabad",
    "pincode": 201302
  },
  {
    "state": "Uttar Pradesh",
    "city": "Ghaziabad",
    "pincode": 201010
  },
  {
    "state": "Uttar Pradesh",
    "city": "Ghaziabad",
    "pincode": 201303
  },
  {
    "state": "Uttar Pradesh",
    "city": "Ghaziabad",
    "pincode": 201002
  },
  {
    "state": "Uttar Pradesh",
    "city": "Ghaziabad",
    "pincode": 201304
  },
  {
    "state": "Uttar Pradesh",
    "city": "Ghaziabad",
    "pincode": 201003
  },
  {
    "state": "Uttar Pradesh",
    "city": "Ghaziabad",
    "pincode": 201204
  },
  {
    "state": "Uttar Pradesh",
    "city": "Ghaziabad",
    "pincode": 201007
  },
  {
    "state": "Uttar Pradesh",
    "city": "Ghaziabad",
    "pincode": 201206
  },
  {
    "state": "Uttar Pradesh",
    "city": "Ghaziabad",
    "pincode": 201301
  },
  {
    "state": "Uttar Pradesh",
    "city": "Ghaziabad",
    "pincode": 245304
  },
  {
    "state": "Uttar Pradesh",
    "city": "Ghaziabad",
    "pincode": 201005
  },
  {
    "state": "Uttar Pradesh",
    "city": "Ghaziabad",
    "pincode": 245207
  },
  {
    "state": "Uttar Pradesh",
    "city": "Ghaziabad",
    "pincode": 201306
  },
  {
    "state": "Uttar Pradesh",
    "city": "Ghaziabad",
    "pincode": 201012
  },
  {
    "state": "Uttar Pradesh",
    "city": "Ghaziabad",
    "pincode": 245102
  },
  {
    "state": "Uttar Pradesh",
    "city": "Ghaziabad",
    "pincode": 201205
  },
  {
    "state": "Uttar Pradesh",
    "city": "Ghaziabad",
    "pincode": 201102
  },
  {
    "state": "Haryana",
    "city": "Gurgaon",
    "pincode": 122005
  },
  {
    "state": "Haryana",
    "city": "Gurgaon",
    "pincode": 122101
  },
  {
    "state": "Haryana",
    "city": "Gurgaon",
    "pincode": 123413
  },
  {
    "state": "Haryana",
    "city": "Gurgaon",
    "pincode": 122102
  },
  {
    "state": "Haryana",
    "city": "Gurgaon",
    "pincode": 122413
  },
  {
    "state": "Haryana",
    "city": "Gurgaon",
    "pincode": 389250
  },
  {
    "state": "Haryana",
    "city": "Gurgaon",
    "pincode": 122506
  },
  {
    "state": "Haryana",
    "city": "Gurgaon",
    "pincode": 122104
  },
  {
    "state": "Haryana",
    "city": "Gurgaon",
    "pincode": 122505
  },
  {
    "state": "Haryana",
    "city": "Gurgaon",
    "pincode": 122001
  },
  {
    "state": "Haryana",
    "city": "Gurgaon",
    "pincode": 122002
  },
  {
    "state": "Haryana",
    "city": "Gurgaon",
    "pincode": 122504
  },
  {
    "state": "Haryana",
    "city": "Gurgaon",
    "pincode": 122016
  },
  {
    "state": "Haryana",
    "city": "Gurgaon",
    "pincode": 122502
  },
  {
    "state": "Haryana",
    "city": "Gurgaon",
    "pincode": 122108
  },
  {
    "state": "Haryana",
    "city": "Gurgaon",
    "pincode": 122414
  },
  {
    "state": "Haryana",
    "city": "Gurgaon",
    "pincode": 122107
  },
  {
    "state": "Haryana",
    "city": "Gurgaon",
    "pincode": 122503
  },
  {
    "state": "Haryana",
    "city": "Gurgaon",
    "pincode": 122103
  },
  {
    "state": "Haryana",
    "city": "Gurgaon",
    "pincode": 122105
  },
  {
    "state": "Haryana",
    "city": "Gurgaon",
    "pincode": 122109
  },
  {
    "state": "Haryana",
    "city": "Gurgaon",
    "pincode": 122106
  },
  {
    "state": "Haryana",
    "city": "Gurgaon",
    "pincode": 122015
  },
  {
    "state": "Haryana",
    "city": "Gurgaon",
    "pincode": 123508
  },
  {
    "state": "Haryana",
    "city": "Gurgaon",
    "pincode": 122050
  },
  {
    "state": "Haryana",
    "city": "Gurgaon",
    "pincode": 122211
  },
  {
    "state": "Andhra Pradesh",
    "city": "Hyderabad",
    "pincode": 500043
  },
  {
    "state": "Andhra Pradesh",
    "city": "Hyderabad",
    "pincode": 500013
  },
  {
    "state": "Andhra Pradesh",
    "city": "Hyderabad",
    "pincode": 500049
  },
  {
    "state": "Andhra Pradesh",
    "city": "Hyderabad",
    "pincode": 500064
  },
  {
    "state": "Andhra Pradesh",
    "city": "Hyderabad",
    "pincode": 500037
  },
  {
    "state": "Andhra Pradesh",
    "city": "Hyderabad",
    "pincode": 500034
  },
  {
    "state": "Andhra Pradesh",
    "city": "Hyderabad",
    "pincode": 500012
  },
  {
    "state": "Andhra Pradesh",
    "city": "Hyderabad",
    "pincode": 500016
  },
  {
    "state": "Andhra Pradesh",
    "city": "Hyderabad",
    "pincode": 500010
  },
  {
    "state": "Andhra Pradesh",
    "city": "Hyderabad",
    "pincode": 500011
  },
  {
    "state": "Andhra Pradesh",
    "city": "Hyderabad",
    "pincode": 505212
  },
  {
    "state": "Andhra Pradesh",
    "city": "Hyderabad",
    "pincode": 500022
  },
  {
    "state": "Andhra Pradesh",
    "city": "Hyderabad",
    "pincode": 500050
  },
  {
    "state": "Andhra Pradesh",
    "city": "Hyderabad",
    "pincode": 500762
  },
  {
    "state": "Andhra Pradesh",
    "city": "Hyderabad",
    "pincode": 500021
  },
  {
    "state": "Andhra Pradesh",
    "city": "Hyderabad",
    "pincode": 500053
  },
  {
    "state": "Andhra Pradesh",
    "city": "Hyderabad",
    "pincode": 500032
  },
  {
    "state": "Andhra Pradesh",
    "city": "Hyderabad",
    "pincode": 500080
  },
  {
    "state": "Andhra Pradesh",
    "city": "Hyderabad",
    "pincode": 500008
  },
  {
    "state": "Andhra Pradesh",
    "city": "Hyderabad",
    "pincode": 500014
  },
  {
    "state": "Andhra Pradesh",
    "city": "Hyderabad",
    "pincode": 500078
  },
  {
    "state": "Andhra Pradesh",
    "city": "Hyderabad",
    "pincode": 501505
  },
  {
    "state": "Andhra Pradesh",
    "city": "Hyderabad",
    "pincode": 500066
  },
  {
    "state": "Andhra Pradesh",
    "city": "Hyderabad",
    "pincode": 500029
  },
  {
    "state": "Andhra Pradesh",
    "city": "Hyderabad",
    "pincode": 500025
  },
  {
    "state": "Andhra Pradesh",
    "city": "Hyderabad",
    "pincode": 500042
  },
  {
    "state": "Andhra Pradesh",
    "city": "Hyderabad",
    "pincode": 500054
  },
  {
    "state": "Andhra Pradesh",
    "city": "Hyderabad",
    "pincode": 500028
  },
  {
    "state": "Andhra Pradesh",
    "city": "Hyderabad",
    "pincode": 500001
  },
  {
    "state": "Andhra Pradesh",
    "city": "Hyderabad",
    "pincode": 500002
  },
  {
    "state": "Andhra Pradesh",
    "city": "Hyderabad",
    "pincode": 500076
  },
  {
    "state": "Andhra Pradesh",
    "city": "Hyderabad",
    "pincode": 500031
  },
  {
    "state": "Andhra Pradesh",
    "city": "Hyderabad",
    "pincode": 500855
  },
  {
    "state": "Andhra Pradesh",
    "city": "Hyderabad",
    "pincode": 500040
  },
  {
    "state": "Andhra Pradesh",
    "city": "Hyderabad",
    "pincode": 500087
  },
  {
    "state": "Andhra Pradesh",
    "city": "Hyderabad",
    "pincode": 500007
  },
  {
    "state": "Andhra Pradesh",
    "city": "Hyderabad",
    "pincode": 500033
  },
  {
    "state": "Andhra Pradesh",
    "city": "Hyderabad",
    "pincode": 500058
  },
  {
    "state": "Andhra Pradesh",
    "city": "Hyderabad",
    "pincode": 500006
  },
  {
    "state": "Andhra Pradesh",
    "city": "Hyderabad",
    "pincode": 500077
  },
  {
    "state": "Andhra Pradesh",
    "city": "Hyderabad",
    "pincode": 500005
  },
  {
    "state": "Andhra Pradesh",
    "city": "Hyderabad",
    "pincode": 500004
  },
  {
    "state": "Andhra Pradesh",
    "city": "Hyderabad",
    "pincode": 500072
  },
  {
    "state": "Andhra Pradesh",
    "city": "Hyderabad",
    "pincode": 500067
  },
  {
    "state": "Andhra Pradesh",
    "city": "Hyderabad",
    "pincode": 500017
  },
  {
    "state": "Andhra Pradesh",
    "city": "Hyderabad",
    "pincode": 500063
  },
  {
    "state": "Andhra Pradesh",
    "city": "Hyderabad",
    "pincode": 500019
  },
  {
    "state": "Andhra Pradesh",
    "city": "Hyderabad",
    "pincode": 500036
  },
  {
    "state": "Andhra Pradesh",
    "city": "Hyderabad",
    "pincode": 500047
  },
  {
    "state": "Andhra Pradesh",
    "city": "Hyderabad",
    "pincode": 500020
  },
  {
    "state": "Andhra Pradesh",
    "city": "Hyderabad",
    "pincode": 500026
  },
  {
    "state": "Andhra Pradesh",
    "city": "Hyderabad",
    "pincode": 500454
  },
  {
    "state": "Andhra Pradesh",
    "city": "Hyderabad",
    "pincode": 500044
  },
  {
    "state": "Andhra Pradesh",
    "city": "Hyderabad",
    "pincode": 500178
  },
  {
    "state": "Andhra Pradesh",
    "city": "Hyderabad",
    "pincode": 500060
  },
  {
    "state": "Andhra Pradesh",
    "city": "Hyderabad",
    "pincode": 500095
  },
  {
    "state": "Andhra Pradesh",
    "city": "Hyderabad",
    "pincode": 500069
  },
  {
    "state": "Andhra Pradesh",
    "city": "Hyderabad",
    "pincode": 500071
  },
  {
    "state": "Andhra Pradesh",
    "city": "Hyderabad",
    "pincode": 500041
  },
  {
    "state": "Andhra Pradesh",
    "city": "Hyderabad",
    "pincode": 500056
  },
  {
    "state": "Andhra Pradesh",
    "city": "Hyderabad",
    "pincode": 500024
  },
  {
    "state": "Andhra Pradesh",
    "city": "Hyderabad",
    "pincode": 500059
  },
  {
    "state": "Andhra Pradesh",
    "city": "Hyderabad",
    "pincode": 500094
  },
  {
    "state": "Andhra Pradesh",
    "city": "Hyderabad",
    "pincode": 500018
  },
  {
    "state": "Andhra Pradesh",
    "city": "Hyderabad",
    "pincode": 500038
  },
  {
    "state": "Andhra Pradesh",
    "city": "Hyderabad",
    "pincode": 500003
  },
  {
    "state": "Andhra Pradesh",
    "city": "Hyderabad",
    "pincode": 500065
  },
  {
    "state": "Andhra Pradesh",
    "city": "Hyderabad",
    "pincode": 500061
  },
  {
    "state": "Andhra Pradesh",
    "city": "Hyderabad",
    "pincode": 500082
  },
  {
    "state": "Andhra Pradesh",
    "city": "Hyderabad",
    "pincode": 500073
  },
  {
    "state": "Andhra Pradesh",
    "city": "Hyderabad",
    "pincode": 500027
  },
  {
    "state": "Andhra Pradesh",
    "city": "Hyderabad",
    "pincode": 500015
  },
  {
    "state": "Andhra Pradesh",
    "city": "Hyderabad",
    "pincode": 500039
  },
  {
    "state": "Andhra Pradesh",
    "city": "Hyderabad",
    "pincode": 500890
  },
  {
    "state": "Andhra Pradesh",
    "city": "Hyderabad",
    "pincode": 500486
  },
  {
    "state": "Andhra Pradesh",
    "city": "Hyderabad",
    "pincode": 500457
  },
  {
    "state": "Andhra Pradesh",
    "city": "Hyderabad",
    "pincode": 500057
  },
  {
    "state": "Andhra Pradesh",
    "city": "Hyderabad",
    "pincode": 500093
  },
  {
    "state": "Andhra Pradesh",
    "city": "Hyderabad",
    "pincode": 500023
  },
  {
    "state": "Andhra Pradesh",
    "city": "Hyderabad",
    "pincode": 500045
  },
  {
    "state": "Andhra Pradesh",
    "city": "Hyderabad",
    "pincode": 500048
  },
  {
    "state": "Andhra Pradesh",
    "city": "Hyderabad",
    "pincode": 500463
  },
  {
    "state": "Andhra Pradesh",
    "city": "Hyderabad",
    "pincode": 500252
  },
  {
    "state": "Andhra Pradesh",
    "city": "Hyderabad",
    "pincode": 500264
  },
  {
    "state": "Andhra Pradesh",
    "city": "Hyderabad",
    "pincode": 500361
  },
  {
    "state": "Andhra Pradesh",
    "city": "Hyderabad",
    "pincode": 500768
  },
  {
    "state": "Andhra Pradesh",
    "city": "Hyderabad",
    "pincode": 500171
  },
  {
    "state": "Andhra Pradesh",
    "city": "Hyderabad",
    "pincode": 500253
  },
  {
    "state": "Andhra Pradesh",
    "city": "Hyderabad",
    "pincode": 500265
  },
  {
    "state": "Andhra Pradesh",
    "city": "Hyderabad",
    "pincode": 500380
  },
  {
    "state": "Andhra Pradesh",
    "city": "Hyderabad",
    "pincode": 500266
  },
  {
    "state": "Andhra Pradesh",
    "city": "Hyderabad",
    "pincode": 500587
  },
  {
    "state": "Andhra Pradesh",
    "city": "Hyderabad",
    "pincode": 500258
  },
  {
    "state": "Andhra Pradesh",
    "city": "Hyderabad",
    "pincode": 500872
  },
  {
    "state": "Andhra Pradesh",
    "city": "Hyderabad",
    "pincode": 500267
  },
  {
    "state": "Andhra Pradesh",
    "city": "Hyderabad",
    "pincode": 500963
  },
  {
    "state": "Andhra Pradesh",
    "city": "Hyderabad",
    "pincode": 500133
  },
  {
    "state": "Andhra Pradesh",
    "city": "Hyderabad",
    "pincode": 500484
  },
  {
    "state": "Andhra Pradesh",
    "city": "Hyderabad",
    "pincode": 500660
  },
  {
    "state": "Andhra Pradesh",
    "city": "Hyderabad",
    "pincode": 500556
  },
  {
    "state": "Andhra Pradesh",
    "city": "Hyderabad",
    "pincode": 500659
  },
  {
    "state": "Andhra Pradesh",
    "city": "Hyderabad",
    "pincode": 500594
  },
  {
    "state": "Andhra Pradesh",
    "city": "Hyderabad",
    "pincode": 500482
  },
  {
    "state": "Andhra Pradesh",
    "city": "Hyderabad",
    "pincode": 500873
  },
  {
    "state": "Andhra Pradesh",
    "city": "Hyderabad",
    "pincode": 500661
  },
  {
    "state": "Andhra Pradesh",
    "city": "Hyderabad",
    "pincode": 500593
  },
  {
    "state": "Rajasthan",
    "city": "Jaipur",
    "pincode": 303002
  },
  {
    "state": "Rajasthan",
    "city": "Jaipur",
    "pincode": 303329
  },
  {
    "state": "Rajasthan",
    "city": "Jaipur",
    "pincode": 303601
  },
  {
    "state": "Rajasthan",
    "city": "Jaipur",
    "pincode": 303101
  },
  {
    "state": "Rajasthan",
    "city": "Jaipur",
    "pincode": 303001
  },
  {
    "state": "Rajasthan",
    "city": "Jaipur",
    "pincode": 755035
  },
  {
    "state": "Rajasthan",
    "city": "Jaipur",
    "pincode": 755027
  },
  {
    "state": "Rajasthan",
    "city": "Jaipur",
    "pincode": 303331
  },
  {
    "state": "Rajasthan",
    "city": "Jaipur",
    "pincode": 303602
  },
  {
    "state": "Rajasthan",
    "city": "Jaipur",
    "pincode": 303007
  },
  {
    "state": "Rajasthan",
    "city": "Jaipur",
    "pincode": 303313
  },
  {
    "state": "Rajasthan",
    "city": "Jaipur",
    "pincode": 303305
  },
  {
    "state": "Rajasthan",
    "city": "Jaipur",
    "pincode": 303301
  },
  {
    "state": "Rajasthan",
    "city": "Jaipur",
    "pincode": 303327
  },
  {
    "state": "Rajasthan",
    "city": "Jaipur",
    "pincode": 303315
  },
  {
    "state": "Rajasthan",
    "city": "Jaipur",
    "pincode": 303119
  },
  {
    "state": "Rajasthan",
    "city": "Jaipur",
    "pincode": 303501
  },
  {
    "state": "Rajasthan",
    "city": "Jaipur",
    "pincode": 303011
  },
  {
    "state": "Rajasthan",
    "city": "Jaipur",
    "pincode": 303010
  },
  {
    "state": "Rajasthan",
    "city": "Jaipur",
    "pincode": 303901
  },
  {
    "state": "Rajasthan",
    "city": "Jaipur",
    "pincode": 303904
  },
  {
    "state": "Rajasthan",
    "city": "Jaipur",
    "pincode": 303702
  },
  {
    "state": "Rajasthan",
    "city": "Jaipur",
    "pincode": 303008
  },
  {
    "state": "Rajasthan",
    "city": "Jaipur",
    "pincode": 303804
  },
  {
    "state": "Rajasthan",
    "city": "Jaipur",
    "pincode": 303712
  },
  {
    "state": "Rajasthan",
    "city": "Jaipur",
    "pincode": 303323
  },
  {
    "state": "Rajasthan",
    "city": "Jaipur",
    "pincode": 303701
  },
  {
    "state": "Rajasthan",
    "city": "Jaipur",
    "pincode": 302001
  },
  {
    "state": "Rajasthan",
    "city": "Jaipur",
    "pincode": 302002
  },
  {
    "state": "Rajasthan",
    "city": "Jaipur",
    "pincode": 302003
  },
  {
    "state": "Rajasthan",
    "city": "Jaipur",
    "pincode": 302004
  },
  {
    "state": "Rajasthan",
    "city": "Jaipur",
    "pincode": 302005
  },
  {
    "state": "Rajasthan",
    "city": "Jaipur",
    "pincode": 302006
  },
  {
    "state": "Rajasthan",
    "city": "Jaipur",
    "pincode": 302007
  },
  {
    "state": "Rajasthan",
    "city": "Jaipur",
    "pincode": 302008
  },
  {
    "state": "Rajasthan",
    "city": "Jaipur",
    "pincode": 302009
  },
  {
    "state": "Rajasthan",
    "city": "Jaipur",
    "pincode": 302010
  },
  {
    "state": "Rajasthan",
    "city": "Jaipur",
    "pincode": 302011
  },
  {
    "state": "Rajasthan",
    "city": "Jaipur",
    "pincode": 302012
  },
  {
    "state": "Rajasthan",
    "city": "Jaipur",
    "pincode": 302013
  },
  {
    "state": "Rajasthan",
    "city": "Jaipur",
    "pincode": 302014
  },
  {
    "state": "Rajasthan",
    "city": "Jaipur",
    "pincode": 302015
  },
  {
    "state": "Rajasthan",
    "city": "Jaipur",
    "pincode": 302016
  },
  {
    "state": "Rajasthan",
    "city": "Jaipur",
    "pincode": 302017
  },
  {
    "state": "Rajasthan",
    "city": "Jaipur",
    "pincode": 302019
  },
  {
    "state": "Rajasthan",
    "city": "Jaipur",
    "pincode": 303704
  },
  {
    "state": "Rajasthan",
    "city": "Jaipur",
    "pincode": 303328
  },
  {
    "state": "Rajasthan",
    "city": "Jaipur",
    "pincode": 303012
  },
  {
    "state": "Rajasthan",
    "city": "Jaipur",
    "pincode": 303803
  },
  {
    "state": "Rajasthan",
    "city": "Jaipur",
    "pincode": 303108
  },
  {
    "state": "Rajasthan",
    "city": "Jaipur",
    "pincode": 303004
  },
  {
    "state": "Rajasthan",
    "city": "Jaipur",
    "pincode": 303006
  },
  {
    "state": "Rajasthan",
    "city": "Jaipur",
    "pincode": 303003
  },
  {
    "state": "Rajasthan",
    "city": "Jaipur",
    "pincode": 303504
  },
  {
    "state": "Rajasthan",
    "city": "Jaipur",
    "pincode": 303339
  },
  {
    "state": "Rajasthan",
    "city": "Jaipur",
    "pincode": 303104
  },
  {
    "state": "Rajasthan",
    "city": "Jaipur",
    "pincode": 303509
  },
  {
    "state": "Rajasthan",
    "city": "Jaipur",
    "pincode": 302020
  },
  {
    "state": "Rajasthan",
    "city": "Jaipur",
    "pincode": 303009
  },
  {
    "state": "Rajasthan",
    "city": "Jaipur",
    "pincode": 303505
  },
  {
    "state": "Rajasthan",
    "city": "Jaipur",
    "pincode": 303348
  },
  {
    "state": "Rajasthan",
    "city": "Jaipur",
    "pincode": 303105
  },
  {
    "state": "Rajasthan",
    "city": "Jaipur",
    "pincode": 303106
  },
  {
    "state": "Rajasthan",
    "city": "Jaipur",
    "pincode": 303506
  },
  {
    "state": "Rajasthan",
    "city": "Jaipur",
    "pincode": 303005
  },
  {
    "state": "Rajasthan",
    "city": "Jaipur",
    "pincode": 303338
  },
  {
    "state": "Rajasthan",
    "city": "Jaipur",
    "pincode": 303107
  },
  {
    "state": "Rajasthan",
    "city": "Jaipur",
    "pincode": 303110
  },
  {
    "state": "Rajasthan",
    "city": "Jaipur",
    "pincode": 303510
  },
  {
    "state": "Rajasthan",
    "city": "Jaipur",
    "pincode": 303603
  },
  {
    "state": "Rajasthan",
    "city": "Jaipur",
    "pincode": 303121
  },
  {
    "state": "Rajasthan",
    "city": "Jaipur",
    "pincode": 303507
  },
  {
    "state": "Rajasthan",
    "city": "Jaipur",
    "pincode": 303604
  },
  {
    "state": "Rajasthan",
    "city": "Jaipur",
    "pincode": 303806
  },
  {
    "state": "Rajasthan",
    "city": "Jaipur",
    "pincode": 303902
  },
  {
    "state": "Rajasthan",
    "city": "Jaipur",
    "pincode": 303103
  },
  {
    "state": "Rajasthan",
    "city": "Jaipur",
    "pincode": 303903
  },
  {
    "state": "Rajasthan",
    "city": "Jaipur",
    "pincode": 303326
  },
  {
    "state": "Rajasthan",
    "city": "Jaipur",
    "pincode": 303508
  },
  {
    "state": "Rajasthan",
    "city": "Jaipur",
    "pincode": 303302
  },
  {
    "state": "Rajasthan",
    "city": "Jaipur",
    "pincode": 303807
  },
  {
    "state": "Rajasthan",
    "city": "Jaipur",
    "pincode": 303102
  },
  {
    "state": "Rajasthan",
    "city": "Jaipur",
    "pincode": 303905
  },
  {
    "state": "Rajasthan",
    "city": "Jaipur",
    "pincode": 303611
  },
  {
    "state": "Rajasthan",
    "city": "Jaipur",
    "pincode": 303308
  },
  {
    "state": "Rajasthan",
    "city": "Jaipur",
    "pincode": 303111
  },
  {
    "state": "Rajasthan",
    "city": "Jaipur",
    "pincode": 303906
  },
  {
    "state": "Rajasthan",
    "city": "Jaipur",
    "pincode": 303306
  },
  {
    "state": "Rajasthan",
    "city": "Jaipur",
    "pincode": 303120
  },
  {
    "state": "Rajasthan",
    "city": "Jaipur",
    "pincode": 303340
  },
  {
    "state": "Rajasthan",
    "city": "Jaipur",
    "pincode": 303907
  },
  {
    "state": "Rajasthan",
    "city": "Jaipur",
    "pincode": 303113
  },
  {
    "state": "Rajasthan",
    "city": "Jaipur",
    "pincode": 303309
  },
  {
    "state": "Rajasthan",
    "city": "Jaipur",
    "pincode": 303330
  },
  {
    "state": "Rajasthan",
    "city": "Jaipur",
    "pincode": 303511
  },
  {
    "state": "Rajasthan",
    "city": "Jaipur",
    "pincode": 303502
  },
  {
    "state": "Rajasthan",
    "city": "Jaipur",
    "pincode": 303115
  },
  {
    "state": "Rajasthan",
    "city": "Jaipur",
    "pincode": 303324
  },
  {
    "state": "Rajasthan",
    "city": "Jaipur",
    "pincode": 303705
  },
  {
    "state": "Rajasthan",
    "city": "Jaipur",
    "pincode": 303609
  },
  {
    "state": "Rajasthan",
    "city": "Jaipur",
    "pincode": 303118
  },
  {
    "state": "Rajasthan",
    "city": "Jaipur",
    "pincode": 303109
  },
  {
    "state": "Rajasthan",
    "city": "Jaipur",
    "pincode": 303341
  },
  {
    "state": "Rajasthan",
    "city": "Jaipur",
    "pincode": 303116
  },
  {
    "state": "Rajasthan",
    "city": "Jaipur",
    "pincode": 303114
  },
  {
    "state": "Rajasthan",
    "city": "Jaipur",
    "pincode": 303606
  },
  {
    "state": "Rajasthan",
    "city": "Jaipur",
    "pincode": 303117
  },
  {
    "state": "Rajasthan",
    "city": "Jaipur",
    "pincode": 303310
  },
  {
    "state": "Rajasthan",
    "city": "Jaipur",
    "pincode": 303608
  },
  {
    "state": "Rajasthan",
    "city": "Jaipur",
    "pincode": 303805
  },
  {
    "state": "Rajasthan",
    "city": "Jaipur",
    "pincode": 303307
  },
  {
    "state": "Rajasthan",
    "city": "Jaipur",
    "pincode": 303209
  },
  {
    "state": "Rajasthan",
    "city": "Jaipur",
    "pincode": 303112
  },
  {
    "state": "Rajasthan",
    "city": "Jaipur",
    "pincode": 303349
  },
  {
    "state": "Rajasthan",
    "city": "Jaipur",
    "pincode": 303314
  },
  {
    "state": "Rajasthan",
    "city": "Jaipur",
    "pincode": 303607
  },
  {
    "state": "Rajasthan",
    "city": "Jaipur",
    "pincode": 303703
  },
  {
    "state": "Bihar",
    "city": "Jamshedpur",
    "pincode": 831001
  },
  {
    "state": "Maharastra",
    "city": "Mumbai",
    "pincode": 400065
  },
  {
    "state": "Maharastra",
    "city": "Mumbai",
    "pincode": 400036
  },
  {
    "state": "Maharastra",
    "city": "Mumbai",
    "pincode": 400069
  },
  {
    "state": "Maharastra",
    "city": "Mumbai",
    "pincode": 400058
  },
  {
    "state": "Maharastra",
    "city": "Mumbai",
    "pincode": 400094
  },
  {
    "state": "Maharastra",
    "city": "Mumbai",
    "pincode": 400085
  },
  {
    "state": "Maharastra",
    "city": "Mumbai",
    "pincode": 400090
  },
  {
    "state": "Maharastra",
    "city": "Mumbai",
    "pincode": 400084
  },
  {
    "state": "Maharastra",
    "city": "Mumbai",
    "pincode": 400078
  },
  {
    "state": "Maharastra",
    "city": "Mumbai",
    "pincode": 400042
  },
  {
    "state": "Maharastra",
    "city": "Mumbai",
    "pincode": 400028
  },
  {
    "state": "Maharastra",
    "city": "Mumbai",
    "pincode": 400093
  },
  {
    "state": "Maharastra",
    "city": "Mumbai",
    "pincode": 400071
  },
  {
    "state": "Maharastra",
    "city": "Mumbai",
    "pincode": 400009
  },
  {
    "state": "Maharastra",
    "city": "Mumbai",
    "pincode": 400005
  },
  {
    "state": "Maharastra",
    "city": "Mumbai",
    "pincode": 400039
  },
  {
    "state": "Maharastra",
    "city": "Mumbai",
    "pincode": 400026
  },
  {
    "state": "Maharastra",
    "city": "Mumbai",
    "pincode": 400014
  },
  {
    "state": "Maharastra",
    "city": "Mumbai",
    "pincode": 400068
  },
  {
    "state": "Maharastra",
    "city": "Mumbai",
    "pincode": 400013
  },
  {
    "state": "Maharastra",
    "city": "Mumbai",
    "pincode": 400017
  },
  {
    "state": "Maharastra",
    "city": "Mumbai",
    "pincode": 400074
  },
  {
    "state": "Maharastra",
    "city": "Mumbai",
    "pincode": 400086
  },
  {
    "state": "Maharastra",
    "city": "Mumbai",
    "pincode": 400004
  },
  {
    "state": "Maharastra",
    "city": "Mumbai",
    "pincode": 400063
  },
  {
    "state": "Maharastra",
    "city": "Mumbai",
    "pincode": 400062
  },
  {
    "state": "Maharastra",
    "city": "Mumbai",
    "pincode": 400007
  },
  {
    "state": "Maharastra",
    "city": "Mumbai",
    "pincode": 400076
  },
  {
    "state": "Maharastra",
    "city": "Mumbai",
    "pincode": 400048
  },
  {
    "state": "Maharastra",
    "city": "Mumbai",
    "pincode": 400059
  },
  {
    "state": "Maharastra",
    "city": "Mumbai",
    "pincode": 400011
  },
  {
    "state": "Maharastra",
    "city": "Mumbai",
    "pincode": 400060
  },
  {
    "state": "Maharastra",
    "city": "Mumbai",
    "pincode": 400102
  },
  {
    "state": "Maharastra",
    "city": "Mumbai",
    "pincode": 400049
  },
  {
    "state": "Maharastra",
    "city": "Mumbai",
    "pincode": 400002
  },
  {
    "state": "Maharastra",
    "city": "Mumbai",
    "pincode": 400101
  },
  {
    "state": "Maharastra",
    "city": "Mumbai",
    "pincode": 400067
  },
  {
    "state": "Maharastra",
    "city": "Mumbai",
    "pincode": 400052
  },
  {
    "state": "Maharastra",
    "city": "Mumbai",
    "pincode": 400095
  },
  {
    "state": "Maharastra",
    "city": "Mumbai",
    "pincode": 400070
  },
  {
    "state": "Maharastra",
    "city": "Mumbai",
    "pincode": 400016
  },
  {
    "state": "Maharastra",
    "city": "Mumbai",
    "pincode": 400006
  },
  {
    "state": "Maharastra",
    "city": "Mumbai",
    "pincode": 400097
  },
  {
    "state": "Maharastra",
    "city": "Mumbai",
    "pincode": 400064
  },
  {
    "state": "Maharastra",
    "city": "Mumbai",
    "pincode": 400103
  },
  {
    "state": "Maharastra",
    "city": "Mumbai",
    "pincode": 400003
  },
  {
    "state": "Maharastra",
    "city": "Mumbai",
    "pincode": 400032
  },
  {
    "state": "Maharastra",
    "city": "Mumbai",
    "pincode": 400020
  },
  {
    "state": "Maharastra",
    "city": "Mumbai",
    "pincode": 400019
  },
  {
    "state": "Maharastra",
    "city": "Mumbai",
    "pincode": 400010
  },
  {
    "state": "Maharastra",
    "city": "Mumbai",
    "pincode": 400104
  },
  {
    "state": "Maharastra",
    "city": "Mumbai",
    "pincode": 400080
  },
  {
    "state": "Maharastra",
    "city": "Mumbai",
    "pincode": 400082
  },
  {
    "state": "Maharastra",
    "city": "Mumbai",
    "pincode": 400081
  },
  {
    "state": "Maharastra",
    "city": "Mumbai",
    "pincode": 400001
  },
  {
    "state": "Maharastra",
    "city": "Mumbai",
    "pincode": 400029
  },
  {
    "state": "Maharastra",
    "city": "Mumbai",
    "pincode": 400008
  },
  {
    "state": "Maharastra",
    "city": "Mumbai",
    "pincode": 400066
  },
  {
    "state": "Maharastra",
    "city": "Mumbai",
    "pincode": 400092
  },
  {
    "state": "Maharastra",
    "city": "Mumbai",
    "pincode": 400091
  },
  {
    "state": "Maharastra",
    "city": "Mumbai",
    "pincode": 400021
  },
  {
    "state": "Maharastra",
    "city": "Mumbai",
    "pincode": 400024
  },
  {
    "state": "Maharastra",
    "city": "Mumbai",
    "pincode": 400087
  },
  {
    "state": "Maharastra",
    "city": "Mumbai",
    "pincode": 400075
  },
  {
    "state": "Maharastra",
    "city": "Mumbai",
    "pincode": 400012
  },
  {
    "state": "Maharastra",
    "city": "Mumbai",
    "pincode": 400025
  },
  {
    "state": "Maharastra",
    "city": "Mumbai",
    "pincode": 400077
  },
  {
    "state": "Maharastra",
    "city": "Mumbai",
    "pincode": 400035
  },
  {
    "state": "Maharastra",
    "city": "Mumbai",
    "pincode": 400099
  },
  {
    "state": "Maharastra",
    "city": "Mumbai",
    "pincode": 400072
  },
  {
    "state": "Maharastra",
    "city": "Mumbai",
    "pincode": 400055
  },
  {
    "state": "Maharastra",
    "city": "Mumbai",
    "pincode": 400054
  },
  {
    "state": "Maharastra",
    "city": "Mumbai",
    "pincode": 400096
  },
  {
    "state": "Maharastra",
    "city": "Mumbai",
    "pincode": 400015
  },
  {
    "state": "Maharastra",
    "city": "Mumbai",
    "pincode": 400043
  },
  {
    "state": "Maharastra",
    "city": "Mumbai",
    "pincode": 400022
  },
  {
    "state": "Maharastra",
    "city": "Mumbai",
    "pincode": 400083
  },
  {
    "state": "Maharastra",
    "city": "Mumbai",
    "pincode": 400033
  },
  {
    "state": "Maharastra",
    "city": "Mumbai",
    "pincode": 400088
  },
  {
    "state": "Maharastra",
    "city": "Mumbai",
    "pincode": 400089
  },
  {
    "state": "Maharastra",
    "city": "Mumbai",
    "pincode": 400034
  },
  {
    "state": "Maharastra",
    "city": "Mumbai",
    "pincode": 400050
  },
  {
    "state": "Maharastra",
    "city": "Mumbai",
    "pincode": 400051
  },
  {
    "state": "Maharastra",
    "city": "Mumbai",
    "pincode": 400061
  },
  {
    "state": "Maharastra",
    "city": "Mumbai",
    "pincode": 400027
  },
  {
    "state": "Maharastra",
    "city": "Mumbai",
    "pincode": 400098
  },
  {
    "state": "Maharastra",
    "city": "Mumbai",
    "pincode": 400079
  },
  {
    "state": "Maharastra",
    "city": "Mumbai",
    "pincode": 400057
  },
  {
    "state": "Maharastra",
    "city": "Mumbai",
    "pincode": 400056
  },
  {
    "state": "Maharastra",
    "city": "Mumbai",
    "pincode": 400031
  },
  {
    "state": "Maharastra",
    "city": "Mumbai",
    "pincode": 400018
  },
  {
    "state": "Maharastra",
    "city": "Mumbai",
    "pincode": 400037
  },
  {
    "state": "Maharastra",
    "city": "Mumbai",
    "pincode": 400023
  },
  {
    "state": "Maharastra",
    "city": "Mumbai",
    "pincode": 400038
  },
  {
    "state": "Maharastra",
    "city": "Mumbai",
    "pincode": 440003
  },
  {
    "state": "Maharastra",
    "city": "Mumbai",
    "pincode": 402226
  },
  {
    "state": "Maharastra",
    "city": "Mumbai",
    "pincode": 400040
  },
  {
    "state": "Maharastra",
    "city": "Mumbai",
    "pincode": 400119
  },
  {
    "state": "Maharastra",
    "city": "Mumbai",
    "pincode": 400030
  },
  {
    "state": "Maharashtra",
    "city": "Mumbai",
    "pincode": 400105
  },
  {
    "state": "Maharashtra",
    "city": "Mumbai",
    "pincode": 400547
  },
  {
    "state": "Maharashtra",
    "city": "Mumbai",
    "pincode": 400125
  },
  {
    "state": "Maharashtra",
    "city": "Mumbai",
    "pincode": 400053
  },
  {
    "state": "Maharashtra",
    "city": "Mumbai",
    "pincode": 400046
  },
  {
    "state": "Maharashtra",
    "city": "Mumbai",
    "pincode": 400047
  },
  {
    "state": "Maharastra",
    "city": "Nasik",
    "pincode": 423502
  },
  {
    "state": "Maharastra",
    "city": "Nasik",
    "pincode": 423211
  },
  {
    "state": "Maharastra",
    "city": "Nasik",
    "pincode": 422010
  },
  {
    "state": "Maharastra",
    "city": "Nasik",
    "pincode": 423402
  },
  {
    "state": "Maharastra",
    "city": "Nasik",
    "pincode": 422011
  },
  {
    "state": "Maharastra",
    "city": "Nasik",
    "pincode": 422502
  },
  {
    "state": "Maharastra",
    "city": "Nasik",
    "pincode": 422301
  },
  {
    "state": "Maharastra",
    "city": "Nasik",
    "pincode": 423112
  },
  {
    "state": "Maharastra",
    "city": "Nasik",
    "pincode": 422602
  },
  {
    "state": "Maharastra",
    "city": "Nasik",
    "pincode": 423209
  },
  {
    "state": "Maharastra",
    "city": "Nasik",
    "pincode": 423101
  },
  {
    "state": "Maharastra",
    "city": "Nasik",
    "pincode": 422009
  },
  {
    "state": "Maharastra",
    "city": "Nasik",
    "pincode": 423201
  },
  {
    "state": "Maharastra",
    "city": "Nasik",
    "pincode": 423202
  },
  {
    "state": "Maharastra",
    "city": "Nasik",
    "pincode": 423116
  },
  {
    "state": "Maharastra",
    "city": "Nasik",
    "pincode": 422307
  },
  {
    "state": "Maharastra",
    "city": "Nasik",
    "pincode": 423102
  },
  {
    "state": "Maharastra",
    "city": "Nasik",
    "pincode": 422401
  },
  {
    "state": "Maharastra",
    "city": "Nasik",
    "pincode": 422501
  },
  {
    "state": "Maharastra",
    "city": "Nasik",
    "pincode": 422202
  },
  {
    "state": "Maharastra",
    "city": "Nasik",
    "pincode": 422006
  },
  {
    "state": "Maharastra",
    "city": "Nasik",
    "pincode": 422402
  },
  {
    "state": "Maharastra",
    "city": "Nasik",
    "pincode": 422203
  },
  {
    "state": "Maharastra",
    "city": "Nasik",
    "pincode": 422204
  },
  {
    "state": "Maharastra",
    "city": "Nasik",
    "pincode": 422005
  },
  {
    "state": "Maharastra",
    "city": "Nasik",
    "pincode": 422403
  },
  {
    "state": "Maharastra",
    "city": "Nasik",
    "pincode": 423303
  },
  {
    "state": "Maharastra",
    "city": "Nasik",
    "pincode": 422308
  },
  {
    "state": "Maharastra",
    "city": "Nasik",
    "pincode": 423501
  },
  {
    "state": "Maharastra",
    "city": "Nasik",
    "pincode": 423213
  },
  {
    "state": "Maharastra",
    "city": "Nasik",
    "pincode": 423314
  },
  {
    "state": "Maharastra",
    "city": "Nasik",
    "pincode": 423203
  },
  {
    "state": "Maharastra",
    "city": "Nasik",
    "pincode": 423105
  },
  {
    "state": "Maharastra",
    "city": "Nasik",
    "pincode": 423104
  },
  {
    "state": "Maharastra",
    "city": "Nasik",
    "pincode": 422004
  },
  {
    "state": "Maharastra",
    "city": "Nasik",
    "pincode": 423305
  },
  {
    "state": "Maharastra",
    "city": "Nasik",
    "pincode": 423304
  },
  {
    "state": "Maharastra",
    "city": "Nasik",
    "pincode": 423106
  },
  {
    "state": "Maharastra",
    "city": "Nasik",
    "pincode": 422606
  },
  {
    "state": "Maharastra",
    "city": "Nasik",
    "pincode": 423204
  },
  {
    "state": "Maharastra",
    "city": "Nasik",
    "pincode": 422001
  },
  {
    "state": "Maharastra",
    "city": "Nasik",
    "pincode": 422002
  },
  {
    "state": "Maharastra",
    "city": "Nasik",
    "pincode": 422007
  },
  {
    "state": "Maharastra",
    "city": "Nasik",
    "pincode": 422003
  },
  {
    "state": "Maharastra",
    "city": "Nasik",
    "pincode": 422101
  },
  {
    "state": "Maharastra",
    "city": "Nasik",
    "pincode": 423212
  },
  {
    "state": "Maharastra",
    "city": "Nasik",
    "pincode": 422303
  },
  {
    "state": "Maharastra",
    "city": "Nasik",
    "pincode": 422206
  },
  {
    "state": "Maharastra",
    "city": "Nasik",
    "pincode": 422207
  },
  {
    "state": "Maharastra",
    "city": "Nasik",
    "pincode": 422216
  },
  {
    "state": "Maharastra",
    "city": "Nasik",
    "pincode": 422208
  },
  {
    "state": "Maharastra",
    "city": "Nasik",
    "pincode": 422209
  },
  {
    "state": "Maharastra",
    "city": "Nasik",
    "pincode": 423108
  },
  {
    "state": "Maharastra",
    "city": "Nasik",
    "pincode": 423114
  },
  {
    "state": "Maharastra",
    "city": "Nasik",
    "pincode": 423307
  },
  {
    "state": "Maharastra",
    "city": "Nasik",
    "pincode": 423208
  },
  {
    "state": "Maharastra",
    "city": "Nasik",
    "pincode": 422210
  },
  {
    "state": "Maharastra",
    "city": "Nasik",
    "pincode": 422103
  },
  {
    "state": "Maharastra",
    "city": "Nasik",
    "pincode": 422302
  },
  {
    "state": "Maharastra",
    "city": "Nasik",
    "pincode": 422211
  },
  {
    "state": "Maharastra",
    "city": "Nasik",
    "pincode": 423302
  },
  {
    "state": "Maharastra",
    "city": "Nasik",
    "pincode": 422105
  },
  {
    "state": "Maharastra",
    "city": "Nasik",
    "pincode": 422212
  },
  {
    "state": "Maharastra",
    "city": "Nasik",
    "pincode": 422213
  },
  {
    "state": "Maharastra",
    "city": "Nasik",
    "pincode": 422304
  },
  {
    "state": "Maharastra",
    "city": "Nasik",
    "pincode": 423310
  },
  {
    "state": "Maharastra",
    "city": "Nasik",
    "pincode": 423117
  },
  {
    "state": "Maharastra",
    "city": "Nasik",
    "pincode": 423210
  },
  {
    "state": "Maharastra",
    "city": "Nasik",
    "pincode": 423206
  },
  {
    "state": "Maharastra",
    "city": "Nasik",
    "pincode": 423111
  },
  {
    "state": "Maharastra",
    "city": "Nasik",
    "pincode": 422214
  },
  {
    "state": "Maharastra",
    "city": "Nasik",
    "pincode": 422215
  },
  {
    "state": "Maharastra",
    "city": "Nasik",
    "pincode": 422305
  },
  {
    "state": "Maharastra",
    "city": "Nasik",
    "pincode": 422104
  },
  {
    "state": "Maharastra",
    "city": "Nasik",
    "pincode": 423401
  },
  {
    "state": "Maharastra",
    "city": "Nasik",
    "pincode": 423205
  },
  {
    "state": "Maharastra",
    "city": "Pune",
    "pincode": 411035
  },
  {
    "state": "Maharastra",
    "city": "Pune",
    "pincode": 412411
  },
  {
    "state": "Maharastra",
    "city": "Pune",
    "pincode": 412105
  },
  {
    "state": "Maharastra",
    "city": "Pune",
    "pincode": 412407
  },
  {
    "state": "Maharastra",
    "city": "Pune",
    "pincode": 411051
  },
  {
    "state": "Maharastra",
    "city": "Pune",
    "pincode": 411021
  },
  {
    "state": "Maharastra",
    "city": "Pune",
    "pincode": 412401
  },
  {
    "state": "Maharastra",
    "city": "Pune",
    "pincode": 411027
  },
  {
    "state": "Maharastra",
    "city": "Pune",
    "pincode": 412406
  },
  {
    "state": "Maharastra",
    "city": "Pune",
    "pincode": 412415
  },
  {
    "state": "Maharastra",
    "city": "Pune",
    "pincode": 413102
  },
  {
    "state": "Maharastra",
    "city": "Pune",
    "pincode": 413103
  },
  {
    "state": "Maharastra",
    "city": "Pune",
    "pincode": 412410
  },
  {
    "state": "Maharastra",
    "city": "Pune",
    "pincode": 413104
  },
  {
    "state": "Maharastra",
    "city": "Pune",
    "pincode": 413105
  },
  {
    "state": "Maharastra",
    "city": "Pune",
    "pincode": 412206
  },
  {
    "state": "Maharastra",
    "city": "Pune",
    "pincode": 411039
  },
  {
    "state": "Maharastra",
    "city": "Pune",
    "pincode": 411026
  },
  {
    "state": "Maharastra",
    "city": "Pune",
    "pincode": 410501
  },
  {
    "state": "Maharastra",
    "city": "Pune",
    "pincode": 411031
  },
  {
    "state": "Maharastra",
    "city": "Pune",
    "pincode": 410513
  },
  {
    "state": "Maharastra",
    "city": "Pune",
    "pincode": 411019
  },
  {
    "state": "Maharastra",
    "city": "Pune",
    "pincode": 411033
  },
  {
    "state": "Maharastra",
    "city": "Pune",
    "pincode": 411012
  },
  {
    "state": "Maharastra",
    "city": "Pune",
    "pincode": 413801
  },
  {
    "state": "Maharastra",
    "city": "Pune",
    "pincode": 411004
  },
  {
    "state": "Maharastra",
    "city": "Pune",
    "pincode": 412109
  },
  {
    "state": "Maharastra",
    "city": "Pune",
    "pincode": 412101
  },
  {
    "state": "Maharastra",
    "city": "Pune",
    "pincode": 410508
  },
  {
    "state": "Maharastra",
    "city": "Pune",
    "pincode": 411043
  },
  {
    "state": "Maharastra",
    "city": "Pune",
    "pincode": 411015
  },
  {
    "state": "Maharastra",
    "city": "Pune",
    "pincode": 410509
  },
  {
    "state": "Maharastra",
    "city": "Pune",
    "pincode": 411014
  },
  {
    "state": "Maharastra",
    "city": "Pune",
    "pincode": 411038
  },
  {
    "state": "Maharastra",
    "city": "Pune",
    "pincode": 411007
  },
  {
    "state": "Maharastra",
    "city": "Pune",
    "pincode": 412408
  },
  {
    "state": "Maharastra",
    "city": "Pune",
    "pincode": 411028
  },
  {
    "state": "Maharastra",
    "city": "Pune",
    "pincode": 411013
  },
  {
    "state": "Maharastra",
    "city": "Pune",
    "pincode": 411025
  },
  {
    "state": "Maharastra",
    "city": "Pune",
    "pincode": 411032
  },
  {
    "state": "Maharastra",
    "city": "Pune",
    "pincode": 410412
  },
  {
    "state": "Maharastra",
    "city": "Pune",
    "pincode": 413106
  },
  {
    "state": "Maharastra",
    "city": "Pune",
    "pincode": 412303
  },
  {
    "state": "Maharastra",
    "city": "Pune",
    "pincode": 410502
  },
  {
    "state": "Maharastra",
    "city": "Pune",
    "pincode": 412404
  },
  {
    "state": "Maharastra",
    "city": "Pune",
    "pincode": 410403
  },
  {
    "state": "Maharastra",
    "city": "Pune",
    "pincode": 410515
  },
  {
    "state": "Maharastra",
    "city": "Pune",
    "pincode": 410405
  },
  {
    "state": "Maharastra",
    "city": "Pune",
    "pincode": 411052
  },
  {
    "state": "Maharastra",
    "city": "Pune",
    "pincode": 411034
  },
  {
    "state": "Maharastra",
    "city": "Pune",
    "pincode": 411046
  },
  {
    "state": "Maharastra",
    "city": "Pune",
    "pincode": 412203
  },
  {
    "state": "Maharastra",
    "city": "Pune",
    "pincode": 411024
  },
  {
    "state": "Maharastra",
    "city": "Pune",
    "pincode": 410301
  },
  {
    "state": "Maharastra",
    "city": "Pune",
    "pincode": 412205
  },
  {
    "state": "Maharastra",
    "city": "Pune",
    "pincode": 411003
  },
  {
    "state": "Maharastra",
    "city": "Pune",
    "pincode": 411029
  },
  {
    "state": "Maharastra",
    "city": "Pune",
    "pincode": 411011
  },
  {
    "state": "Maharastra",
    "city": "Pune",
    "pincode": 413117
  },
  {
    "state": "Maharastra",
    "city": "Pune",
    "pincode": 411047
  },
  {
    "state": "Maharastra",
    "city": "Pune",
    "pincode": 410401
  },
  {
    "state": "Maharastra",
    "city": "Pune",
    "pincode": 410510
  },
  {
    "state": "Maharastra",
    "city": "Pune",
    "pincode": 412201
  },
  {
    "state": "Maharastra",
    "city": "Pune",
    "pincode": 412219
  },
  {
    "state": "Maharastra",
    "city": "Pune",
    "pincode": 413115
  },
  {
    "state": "Maharastra",
    "city": "Pune",
    "pincode": 412218
  },
  {
    "state": "Maharastra",
    "city": "Pune",
    "pincode": 410503
  },
  {
    "state": "Maharastra",
    "city": "Pune",
    "pincode": 412307
  },
  {
    "state": "Maharastra",
    "city": "Pune",
    "pincode": 412304
  },
  {
    "state": "Maharastra",
    "city": "Pune",
    "pincode": 411037
  },
  {
    "state": "Maharastra",
    "city": "Pune",
    "pincode": 411016
  },
  {
    "state": "Maharastra",
    "city": "Pune",
    "pincode": 411036
  },
  {
    "state": "Maharastra",
    "city": "Pune",
    "pincode": 412213
  },
  {
    "state": "Maharastra",
    "city": "Pune",
    "pincode": 411008
  },
  {
    "state": "Maharastra",
    "city": "Pune",
    "pincode": 411023
  },
  {
    "state": "Maharastra",
    "city": "Pune",
    "pincode": 412211
  },
  {
    "state": "Maharastra",
    "city": "Pune",
    "pincode": 411048
  },
  {
    "state": "Maharastra",
    "city": "Pune",
    "pincode": 413120
  },
  {
    "state": "Maharastra",
    "city": "Pune",
    "pincode": 412102
  },
  {
    "state": "Maharastra",
    "city": "Pune",
    "pincode": 412113
  },
  {
    "state": "Maharastra",
    "city": "Pune",
    "pincode": 412409
  },
  {
    "state": "Maharastra",
    "city": "Pune",
    "pincode": 412403
  },
  {
    "state": "Maharastra",
    "city": "Pune",
    "pincode": 411044
  },
  {
    "state": "Maharastra",
    "city": "Pune",
    "pincode": 413132
  },
  {
    "state": "Maharastra",
    "city": "Pune",
    "pincode": 413110
  },
  {
    "state": "Maharastra",
    "city": "Pune",
    "pincode": 412107
  },
  {
    "state": "Maharastra",
    "city": "Pune",
    "pincode": 412311
  },
  {
    "state": "Maharastra",
    "city": "Pune",
    "pincode": 411045
  },
  {
    "state": "Maharastra",
    "city": "Pune",
    "pincode": 412108
  },
  {
    "state": "Maharastra",
    "city": "Pune",
    "pincode": 410406
  },
  {
    "state": "Maharastra",
    "city": "Pune",
    "pincode": 410512
  },
  {
    "state": "Maharastra",
    "city": "Pune",
    "pincode": 412308
  },
  {
    "state": "Maharastra",
    "city": "Pune",
    "pincode": 412412
  },
  {
    "state": "Maharastra",
    "city": "Pune",
    "pincode": 411017
  },
  {
    "state": "Maharastra",
    "city": "Pune",
    "pincode": 411018
  },
  {
    "state": "Maharastra",
    "city": "Pune",
    "pincode": 411001
  },
  {
    "state": "Maharastra",
    "city": "Pune",
    "pincode": 411002
  },
  {
    "state": "Maharastra",
    "city": "Pune",
    "pincode": 410302
  },
  {
    "state": "Maharastra",
    "city": "Pune",
    "pincode": 412104
  },
  {
    "state": "Maharastra",
    "city": "Pune",
    "pincode": 410505
  },
  {
    "state": "Maharastra",
    "city": "Pune",
    "pincode": 411020
  },
  {
    "state": "Maharastra",
    "city": "Pune",
    "pincode": 412209
  },
  {
    "state": "Maharastra",
    "city": "Pune",
    "pincode": 411030
  },
  {
    "state": "Maharastra",
    "city": "Pune",
    "pincode": 411022
  },
  {
    "state": "Maharastra",
    "city": "Pune",
    "pincode": 411010
  },
  {
    "state": "Maharastra",
    "city": "Pune",
    "pincode": 412301
  },
  {
    "state": "Maharastra",
    "city": "Pune",
    "pincode": 413124
  },
  {
    "state": "Maharastra",
    "city": "Pune",
    "pincode": 410516
  },
  {
    "state": "Maharastra",
    "city": "Pune",
    "pincode": 410511
  },
  {
    "state": "Maharastra",
    "city": "Pune",
    "pincode": 412210
  },
  {
    "state": "Maharastra",
    "city": "Pune",
    "pincode": 411005
  },
  {
    "state": "Maharastra",
    "city": "Pune",
    "pincode": 412204
  },
  {
    "state": "Maharastra",
    "city": "Pune",
    "pincode": 411042
  },
  {
    "state": "Maharastra",
    "city": "Pune",
    "pincode": 410506
  },
  {
    "state": "Maharastra",
    "city": "Pune",
    "pincode": 414208
  },
  {
    "state": "Maharastra",
    "city": "Pune",
    "pincode": 412110
  },
  {
    "state": "Maharastra",
    "city": "Pune",
    "pincode": 412202
  },
  {
    "state": "Maharastra",
    "city": "Pune",
    "pincode": 412402
  },
  {
    "state": "Maharastra",
    "city": "Pune",
    "pincode": 411041
  },
  {
    "state": "Maharastra",
    "city": "Pune",
    "pincode": 412106
  },
  {
    "state": "Maharastra",
    "city": "Pune",
    "pincode": 412103
  },
  {
    "state": "Maharastra",
    "city": "Pune",
    "pincode": 412207
  },
  {
    "state": "Maharastra",
    "city": "Pune",
    "pincode": 412215
  },
  {
    "state": "Maharastra",
    "city": "Pune",
    "pincode": 412312
  },
  {
    "state": "Maharastra",
    "city": "Pune",
    "pincode": 414212
  },
  {
    "state": "Maharastra",
    "city": "Pune",
    "pincode": 413114
  },
  {
    "state": "Maharastra",
    "city": "Pune",
    "pincode": 411040
  },
  {
    "state": "Maharastra",
    "city": "Pune",
    "pincode": 412214
  },
  {
    "state": "Maharastra",
    "city": "Pune",
    "pincode": 411006
  },
  {
    "state": "Maharashtra",
    "city": "Pune",
    "pincode": 412405
  },
  {
    "state": "Maharashtra",
    "city": "Pune",
    "pincode": 411125
  },
  {
    "state": "Maharashtra",
    "city": "Pune",
    "pincode": 413130
  },
  {
    "state": "Maharashtra",
    "city": "Pune",
    "pincode": 412112
  },
  {
    "state": "Maharashtra",
    "city": "Pune",
    "pincode": 410402
  },
  {
    "state": "Maharashtra",
    "city": "Pune",
    "pincode": 412309
  },
  {
    "state": "Maharashtra",
    "city": "Pune",
    "pincode": 412413
  },
  {
    "state": "Maharashtra",
    "city": "Pune",
    "pincode": 412217
  },
  {
    "state": "Maharashtra",
    "city": "Pune",
    "pincode": 412310
  },
  {
    "state": "Maharashtra",
    "city": "Pune",
    "pincode": 411925
  },
  {
    "state": "Maharashtra",
    "city": "Pune",
    "pincode": 410504
  },
  {
    "state": "Maharashtra",
    "city": "Pune",
    "pincode": 411009
  },
  {
    "state": "Maharashtra",
    "city": "Pune",
    "pincode": 412111
  },
  {
    "state": "Maharashtra",
    "city": "Pune",
    "pincode": 412302
  },
  {
    "state": "Maharashtra",
    "city": "Pune",
    "pincode": 412114
  },
  {
    "state": "Maharashtra",
    "city": "Pune",
    "pincode": 413116
  },
  {
    "state": "Maharashtra",
    "city": "Pune",
    "pincode": 412306
  },
  {
    "state": "Maharashtra",
    "city": "Pune",
    "pincode": 411105
  },
  {
    "state": "Maharashtra",
    "city": "Pune",
    "pincode": 412208
  },
  {
    "state": "Maharashtra",
    "city": "Pune",
    "pincode": 410507
  },
  {
    "state": "Maharashtra",
    "city": "Pune",
    "pincode": 410514
  },
  {
    "state": "Maharashtra",
    "city": "Pune",
    "pincode": 412305
  },
  {
    "state": "Maharashtra",
    "city": "Pune",
    "pincode": 410410
  },
  {
    "state": "Maharashtra",
    "city": "Pune",
    "pincode": 412212
  },
  {
    "state": "Maharastra",
    "city": "Thane",
    "pincode": 421506
  },
  {
    "state": "Maharastra",
    "city": "Thane",
    "pincode": 401301
  },
  {
    "state": "Maharastra",
    "city": "Thane",
    "pincode": 400708
  },
  {
    "state": "Maharastra",
    "city": "Thane",
    "pincode": 421501
  },
  {
    "state": "Maharastra",
    "city": "Thane",
    "pincode": 400615
  },
  {
    "state": "Maharastra",
    "city": "Thane",
    "pincode": 421603
  },
  {
    "state": "Maharastra",
    "city": "Thane",
    "pincode": 401101
  },
  {
    "state": "Maharastra",
    "city": "Thane",
    "pincode": 401105
  },
  {
    "state": "Maharastra",
    "city": "Thane",
    "pincode": 401501
  },
  {
    "state": "Maharastra",
    "city": "Thane",
    "pincode": 401701
  },
  {
    "state": "Maharastra",
    "city": "Thane",
    "pincode": 401503
  },
  {
    "state": "Maharastra",
    "city": "Thane",
    "pincode": 401601
  },
  {
    "state": "Maharastra",
    "city": "Thane",
    "pincode": 401602
  },
  {
    "state": "Maharastra",
    "city": "Thane",
    "pincode": 421321
  },
  {
    "state": "Maharastra",
    "city": "Thane",
    "pincode": 401610
  },
  {
    "state": "Maharastra",
    "city": "Thane",
    "pincode": 421402
  },
  {
    "state": "Maharastra",
    "city": "Thane",
    "pincode": 421203
  },
  {
    "state": "Maharastra",
    "city": "Thane",
    "pincode": 401206
  },
  {
    "state": "Maharastra",
    "city": "Thane",
    "pincode": 400701
  },
  {
    "state": "Maharastra",
    "city": "Thane",
    "pincode": 401702
  },
  {
    "state": "Maharastra",
    "city": "Thane",
    "pincode": 400606
  },
  {
    "state": "Maharastra",
    "city": "Thane",
    "pincode": 401603
  },
  {
    "state": "Maharastra",
    "city": "Thane",
    "pincode": 421312
  },
  {
    "state": "Maharastra",
    "city": "Thane",
    "pincode": 400605
  },
  {
    "state": "Maharastra",
    "city": "Thane",
    "pincode": 421301
  },
  {
    "state": "Maharastra",
    "city": "Thane",
    "pincode": 401607
  },
  {
    "state": "Maharastra",
    "city": "Thane",
    "pincode": 421602
  },
  {
    "state": "Maharastra",
    "city": "Thane",
    "pincode": 421306
  },
  {
    "state": "Maharastra",
    "city": "Thane",
    "pincode": 401401
  },
  {
    "state": "Maharastra",
    "city": "Thane",
    "pincode": 401402
  },
  {
    "state": "Maharastra",
    "city": "Thane",
    "pincode": 421403
  },
  {
    "state": "Maharastra",
    "city": "Thane",
    "pincode": 400614
  },
  {
    "state": "Maharastra",
    "city": "Thane",
    "pincode": 400709
  },
  {
    "state": "Maharastra",
    "city": "Thane",
    "pincode": 401703
  },
  {
    "state": "Maharastra",
    "city": "Thane",
    "pincode": 400705
  },
  {
    "state": "Maharastra",
    "city": "Thane",
    "pincode": 421503
  },
  {
    "state": "Maharastra",
    "city": "Thane",
    "pincode": 421605
  },
  {
    "state": "Maharastra",
    "city": "Thane",
    "pincode": 401403
  },
  {
    "state": "Maharastra",
    "city": "Thane",
    "pincode": 421204
  },
  {
    "state": "Maharastra",
    "city": "Thane",
    "pincode": 401104
  },
  {
    "state": "Maharastra",
    "city": "Thane",
    "pincode": 421102
  },
  {
    "state": "Maharastra",
    "city": "Thane",
    "pincode": 401604
  },
  {
    "state": "Maharastra",
    "city": "Thane",
    "pincode": 400612
  },
  {
    "state": "Maharastra",
    "city": "Thane",
    "pincode": 421401
  },
  {
    "state": "Maharastra",
    "city": "Thane",
    "pincode": 401209
  },
  {
    "state": "Maharastra",
    "city": "Thane",
    "pincode": 400602
  },
  {
    "state": "Maharastra",
    "city": "Thane",
    "pincode": 400706
  },
  {
    "state": "Maharastra",
    "city": "Thane",
    "pincode": 421505
  },
  {
    "state": "Maharastra",
    "city": "Thane",
    "pincode": 401304
  },
  {
    "state": "Maharastra",
    "city": "Thane",
    "pincode": 421502
  },
  {
    "state": "Maharastra",
    "city": "Thane",
    "pincode": 421101
  },
  {
    "state": "Maharastra",
    "city": "Thane",
    "pincode": 401404
  },
  {
    "state": "Maharastra",
    "city": "Thane",
    "pincode": 401207
  },
  {
    "state": "Maharastra",
    "city": "Thane",
    "pincode": 400607
  },
  {
    "state": "Maharastra",
    "city": "Thane",
    "pincode": 421311
  },
  {
    "state": "Maharastra",
    "city": "Thane",
    "pincode": 401405
  },
  {
    "state": "Maharastra",
    "city": "Thane",
    "pincode": 421103
  },
  {
    "state": "Maharastra",
    "city": "Thane",
    "pincode": 421601
  },
  {
    "state": "Maharastra",
    "city": "Thane",
    "pincode": 401203
  },
  {
    "state": "Maharastra",
    "city": "Thane",
    "pincode": 421003
  },
  {
    "state": "Maharastra",
    "city": "Thane",
    "pincode": 401609
  },
  {
    "state": "Maharastra",
    "city": "Thane",
    "pincode": 401606
  },
  {
    "state": "Maharastra",
    "city": "Thane",
    "pincode": 410208
  },
  {
    "state": "Maharastra",
    "city": "Thane",
    "pincode": 401502
  },
  {
    "state": "Maharastra",
    "city": "Thane",
    "pincode": 401506
  },
  {
    "state": "Maharastra",
    "city": "Thane",
    "pincode": 421206
  },
  {
    "state": "Maharastra",
    "city": "Thane",
    "pincode": 400603
  },
  {
    "state": "Maharastra",
    "city": "Thane",
    "pincode": 400601
  },
  {
    "state": "Maharastra",
    "city": "Thane",
    "pincode": 421201
  },
  {
    "state": "Maharastra",
    "city": "Thane",
    "pincode": 400613
  },
  {
    "state": "Maharastra",
    "city": "Thane",
    "pincode": 421001
  },
  {
    "state": "Maharastra",
    "city": "Thane",
    "pincode": 421002
  },
  {
    "state": "Maharastra",
    "city": "Thane",
    "pincode": 421004
  },
  {
    "state": "Maharastra",
    "city": "Thane",
    "pincode": 421005
  },
  {
    "state": "Maharastra",
    "city": "Thane",
    "pincode": 401102
  },
  {
    "state": "Maharastra",
    "city": "Thane",
    "pincode": 401106
  },
  {
    "state": "Maharastra",
    "city": "Thane",
    "pincode": 421303
  },
  {
    "state": "Maharastra",
    "city": "Thane",
    "pincode": 401103
  },
  {
    "state": "Maharastra",
    "city": "Thane",
    "pincode": 401204
  },
  {
    "state": "Maharastra",
    "city": "Thane",
    "pincode": 401208
  },
  {
    "state": "Maharastra",
    "city": "Thane",
    "pincode": 400703
  },
  {
    "state": "Maharastra",
    "city": "Thane",
    "pincode": 421604
  },
  {
    "state": "Maharastra",
    "city": "Thane",
    "pincode": 421305
  },
  {
    "state": "Maharastra",
    "city": "Thane",
    "pincode": 401605
  },
  {
    "state": "Maharastra",
    "city": "Thane",
    "pincode": 401303
  },
  {
    "state": "Maharastra",
    "city": "Thane",
    "pincode": 421202
  },
  {
    "state": "Maharastra",
    "city": "Thane",
    "pincode": 400604
  },
  {
    "state": "Maharashtra",
    "city": "Thane",
    "pincode": 401505
  },
  {
    "state": "Maharashtra",
    "city": "Thane",
    "pincode": 401302
  },
  {
    "state": "Maharashtra",
    "city": "Thane",
    "pincode": 421504
  },
  {
    "state": "Maharashtra",
    "city": "Thane",
    "pincode": 401201
  },
  {
    "state": "Maharashtra",
    "city": "Thane",
    "pincode": 401202
  },
  {
    "state": "Maharashtra",
    "city": "Thane",
    "pincode": 400611
  },
  {
    "state": "Maharashtra",
    "city": "Thane",
    "pincode": 421302
  },
  {
    "state": "Maharashtra",
    "city": "Thane",
    "pincode": 401608
  },
  {
    "state": "Maharashtra",
    "city": "Thane",
    "pincode": 401205
  },
  {
    "state": "Maharashtra",
    "city": "Thane",
    "pincode": 401406
  },
  {
    "state": "Maharashtra",
    "city": "Thane",
    "pincode": 421304
  },
  {
    "state": "Maharashtra",
    "city": "Thane",
    "pincode": 416544
  },
  {
    "state": "Maharashtra",
    "city": "Thane",
    "pincode": 400609
  },
  {
    "state": "Maharashtra",
    "city": "Thane",
    "pincode": 421205
  },
  {
    "state": "Maharashtra",
    "city": "Thane",
    "pincode": 401407
  },
  {
    "state": "Maharashtra",
    "city": "Thane",
    "pincode": 401504
  },
  {
    "state": "Maharashtra",
    "city": "Nashik",
    "pincode": 422108
  },
  {
    "state": "Maharashtra",
    "city": "Nashik",
    "pincode": 422503
  },
  {
    "state": "Maharashtra",
    "city": "Nashik",
    "pincode": 422205
  },
  {
    "state": "Maharashtra",
    "city": "Nashik",
    "pincode": 422107
  },
  {
    "state": "Maharashtra",
    "city": "Nashik",
    "pincode": 422405
  },
  {
    "state": "Maharashtra",
    "city": "Nashik",
    "pincode": 422102
  },
  {
    "state": "Maharashtra",
    "city": "Nashik",
    "pincode": 423301
  },
  {
    "state": "Maharashtra",
    "city": "Nashik",
    "pincode": 422008
  },
  {
    "state": "West Bengal",
    "city": "Kolkata",
    "pincode": 700027
  },
  {
    "state": "West Bengal",
    "city": "Kolkata",
    "pincode": 700003
  },
  {
    "state": "West Bengal",
    "city": "Kolkata",
    "pincode": 700019
  },
  {
    "state": "West Bengal",
    "city": "Kolkata",
    "pincode": 700007
  },
  {
    "state": "West Bengal",
    "city": "Kolkata",
    "pincode": 700006
  },
  {
    "state": "West Bengal",
    "city": "Kolkata",
    "pincode": 700077
  },
  {
    "state": "West Bengal",
    "city": "Kolkata",
    "pincode": 700010
  },
  {
    "state": "West Bengal",
    "city": "Kolkata",
    "pincode": 700037
  },
  {
    "state": "West Bengal",
    "city": "Kolkata",
    "pincode": 700012
  },
  {
    "state": "West Bengal",
    "city": "Kolkata",
    "pincode": 700001
  },
  {
    "state": "West Bengal",
    "city": "Kolkata",
    "pincode": 700095
  },
  {
    "state": "West Bengal",
    "city": "Kolkata",
    "pincode": 700073
  },
  {
    "state": "West Bengal",
    "city": "Kolkata",
    "pincode": 700017
  },
  {
    "state": "West Bengal",
    "city": "Kolkata",
    "pincode": 742102
  },
  {
    "state": "West Bengal",
    "city": "Kolkata",
    "pincode": 700002
  },
  {
    "state": "West Bengal",
    "city": "Kolkata",
    "pincode": 700031
  },
  {
    "state": "West Bengal",
    "city": "Kolkata",
    "pincode": 700013
  },
  {
    "state": "West Bengal",
    "city": "Kolkata",
    "pincode": 700069
  },
  {
    "state": "West Bengal",
    "city": "Kolkata",
    "pincode": 700021
  },
  {
    "state": "West Bengal",
    "city": "Kolkata",
    "pincode": 700024
  },
  {
    "state": "West Bengal",
    "city": "Kolkata",
    "pincode": 700046
  },
  {
    "state": "West Bengal",
    "city": "Kolkata",
    "pincode": 700022
  },
  {
    "state": "West Bengal",
    "city": "Kolkata",
    "pincode": 700005
  },
  {
    "state": "West Bengal",
    "city": "Kolkata",
    "pincode": 700014
  },
  {
    "state": "West Bengal",
    "city": "Kolkata",
    "pincode": 700026
  },
  {
    "state": "West Bengal",
    "city": "Kolkata",
    "pincode": 700054
  },
  {
    "state": "West Bengal",
    "city": "Kolkata",
    "pincode": 700023
  },
  {
    "state": "West Bengal",
    "city": "Kolkata",
    "pincode": 700085
  },
  {
    "state": "West Bengal",
    "city": "Kolkata",
    "pincode": 700020
  },
  {
    "state": "West Bengal",
    "city": "Kolkata",
    "pincode": 700071
  },
  {
    "state": "West Bengal",
    "city": "Kolkata",
    "pincode": 700011
  },
  {
    "state": "West Bengal",
    "city": "Kolkata",
    "pincode": 700053
  },
  {
    "state": "West Bengal",
    "city": "Kolkata",
    "pincode": 700087
  },
  {
    "state": "West Bengal",
    "city": "Kolkata",
    "pincode": 700016
  },
  {
    "state": "West Bengal",
    "city": "Kolkata",
    "pincode": 700072
  },
  {
    "state": "West Bengal",
    "city": "Kolkata",
    "pincode": 700009
  },
  {
    "state": "West Bengal",
    "city": "Kolkata",
    "pincode": 700029
  },
  {
    "state": "West Bengal",
    "city": "Kolkata",
    "pincode": 700004
  },
  {
    "state": "West Bengal",
    "city": "Kolkata",
    "pincode": 700043
  },
  {
    "state": "West Bengal",
    "city": "Kolkata",
    "pincode": 700015
  },
  {
    "state": "West Bengal",
    "city": "Kolkata",
    "pincode": 700033
  },
  {
    "state": "West Bengal",
    "city": "Kolkata",
    "pincode": 700067
  },
  {
    "state": "West Bengal",
    "city": "Kolkata",
    "pincode": 700062
  },
  {
    "state": "West Bengal",
    "city": "Kolkata",
    "pincode": 700028
  },
  {
    "state": "West Bengal",
    "city": "Kolkata",
    "pincode": 700060
  },
  {
    "state": "West Bengal",
    "city": "Kolkata",
    "pincode": 700076
  },
  {
    "state": "West Bengal",
    "city": "Kolkata",
    "pincode": 700057
  },
  {
    "state": "West Bengal",
    "city": "Kolkata",
    "pincode": 700063
  },
  {
    "state": "West Bengal",
    "city": "Kolkata",
    "pincode": 700051
  },
  {
    "state": "West Bengal",
    "city": "Kolkata",
    "pincode": 700030
  },
  {
    "state": "West Bengal",
    "city": "Kolkata",
    "pincode": 700034
  },
  {
    "state": "West Bengal",
    "city": "Kolkata",
    "pincode": 700075
  },
  {
    "state": "West Bengal",
    "city": "Kolkata",
    "pincode": 700018
  },
  {
    "state": "West Bengal",
    "city": "Kolkata",
    "pincode": 700090
  },
  {
    "state": "West Bengal",
    "city": "Kolkata",
    "pincode": 700049
  },
  {
    "state": "West Bengal",
    "city": "Kolkata",
    "pincode": 700035
  },
  {
    "state": "West Bengal",
    "city": "Kolkata",
    "pincode": 700074
  },
  {
    "state": "West Bengal",
    "city": "Kolkata",
    "pincode": 700048
  },
  {
    "state": "West Bengal",
    "city": "Kolkata",
    "pincode": 700056
  },
  {
    "state": "West Bengal",
    "city": "Kolkata",
    "pincode": 700065
  },
  {
    "state": "West Bengal",
    "city": "Kolkata",
    "pincode": 700078
  },
  {
    "state": "West Bengal",
    "city": "Kolkata",
    "pincode": 700025
  },
  {
    "state": "West Bengal",
    "city": "Kolkata",
    "pincode": 700040
  },
  {
    "state": "West Bengal",
    "city": "Kolkata",
    "pincode": 700083
  },
  {
    "state": "West Bengal",
    "city": "Kolkata",
    "pincode": 700058
  },
  {
    "state": "West Bengal",
    "city": "Kolkata",
    "pincode": 700044
  },
  {
    "state": "West Bengal",
    "city": "Kolkata",
    "pincode": 700032
  },
  {
    "state": "West Bengal",
    "city": "Kolkata",
    "pincode": 700036
  },
  {
    "state": "West Bengal",
    "city": "Kolkata",
    "pincode": 700086
  },
  {
    "state": "West Bengal",
    "city": "Kolkata",
    "pincode": 700061
  },
  {
    "state": "West Bengal",
    "city": "Kolkata",
    "pincode": 700059
  },
  {
    "state": "West Bengal",
    "city": "Kolkata",
    "pincode": 700047
  },
  {
    "state": "West Bengal",
    "city": "Kolkata",
    "pincode": 700008
  },
  {
    "state": "West Bengal",
    "city": "Kolkata",
    "pincode": 700038
  },
  {
    "state": "West Bengal",
    "city": "Kolkata",
    "pincode": 700041
  },
  {
    "state": "West Bengal",
    "city": "Kolkata",
    "pincode": 700050
  },
  {
    "state": "West Bengal",
    "city": "Kolkata",
    "pincode": 700042
  },
  {
    "state": "West Bengal",
    "city": "Kolkata",
    "pincode": 700039
  },
  {
    "state": "West Bengal",
    "city": "Kolkata",
    "pincode": 700081
  },
  {
    "state": "West Bengal",
    "city": "Kolkata",
    "pincode": 700082
  },
  {
    "state": "West Bengal",
    "city": "Kolkata",
    "pincode": 700045
  },
  {
    "state": "West Bengal",
    "city": "Kolkata",
    "pincode": 700080
  },
  {
    "state": "West Bengal",
    "city": "Kolkata",
    "pincode": 700084
  },
  {
    "state": "West Bengal",
    "city": "Kolkata",
    "pincode": 700000
  },
  {
    "state": "West Bengal",
    "city": "Kolkata",
    "pincode": 700055
  },
  {
    "state": "West Bengal",
    "city": "Kolkata",
    "pincode": 700068
  },
  {
    "state": "West Bengal",
    "city": "Kolkata",
    "pincode": 700089
  },
  {
    "state": "West Bengal",
    "city": "Kolkata",
    "pincode": 700088
  },
  {
    "state": "West Bengal",
    "city": "Kolkata",
    "pincode": 700096
  },
  {
    "state": "Orissa",
    "city": "Bhubaneshwar",
    "pincode": 751001
  },
  {
    "state": "Maharashtra",
    "city": "Navi Mumbai",
    "pincode": 410701
  }
]
